[
  {
    "name": "Ba Đình",
    "name_en": "Ba Dinh",
    "full_name": "Quận Ba Đình",
    "full_name_en": "Ba Dinh District",
    "code_name": "ba_dinh",
    "province_id": "01",
    "id": "001"
  },
  {
    "name": "Hoàn Kiếm",
    "name_en": "Hoan Kiem",
    "full_name": "Quận Hoàn Kiếm",
    "full_name_en": "Hoan Kiem District",
    "code_name": "hoan_kiem",
    "province_id": "01",
    "id": "002"
  },
  {
    "name": "Tây Hồ",
    "name_en": "Tay Ho",
    "full_name": "Quận Tây Hồ",
    "full_name_en": "Tay Ho District",
    "code_name": "tay_ho",
    "province_id": "01",
    "id": "003"
  },
  {
    "name": "Long Biên",
    "name_en": "Long Bien",
    "full_name": "Quận Long Biên",
    "full_name_en": "Long Bien District",
    "code_name": "long_bien",
    "province_id": "01",
    "id": "004"
  },
  {
    "name": "Cầu Giấy",
    "name_en": "Cau Giay",
    "full_name": "Quận Cầu Giấy",
    "full_name_en": "Cau Giay District",
    "code_name": "cau_giay",
    "province_id": "01",
    "id": "005"
  },
  {
    "name": "Đống Đa",
    "name_en": "Dong Da",
    "full_name": "Quận Đống Đa",
    "full_name_en": "Dong Da District",
    "code_name": "dong_da",
    "province_id": "01",
    "id": "006"
  },
  {
    "name": "Hai Bà Trưng",
    "name_en": "Hai Ba Trung",
    "full_name": "Quận Hai Bà Trưng",
    "full_name_en": "Hai Ba Trung District",
    "code_name": "hai_ba_trung",
    "province_id": "01",
    "id": "007"
  },
  {
    "name": "Hoàng Mai",
    "name_en": "Hoang Mai",
    "full_name": "Quận Hoàng Mai",
    "full_name_en": "Hoang Mai District",
    "code_name": "hoang_mai",
    "province_id": "01",
    "id": "008"
  },
  {
    "name": "Thanh Xuân",
    "name_en": "Thanh Xuan",
    "full_name": "Quận Thanh Xuân",
    "full_name_en": "Thanh Xuan District",
    "code_name": "thanh_xuan",
    "province_id": "01",
    "id": "009"
  },
  {
    "name": "Sóc Sơn",
    "name_en": "Soc Son",
    "full_name": "Huyện Sóc Sơn",
    "full_name_en": "Soc Son District",
    "code_name": "soc_son",
    "province_id": "01",
    "id": "016"
  },
  {
    "name": "Đông Anh",
    "name_en": "Dong Anh",
    "full_name": "Huyện Đông Anh",
    "full_name_en": "Dong Anh District",
    "code_name": "dong_anh",
    "province_id": "01",
    "id": "017"
  },
  {
    "name": "Gia Lâm",
    "name_en": "Gia Lam",
    "full_name": "Huyện Gia Lâm",
    "full_name_en": "Gia Lam District",
    "code_name": "gia_lam",
    "province_id": "01",
    "id": "018"
  },
  {
    "name": "Nam Từ Liêm",
    "name_en": "Nam Tu Liem",
    "full_name": "Quận Nam Từ Liêm",
    "full_name_en": "Nam Tu Liem District",
    "code_name": "nam_tu_liem",
    "province_id": "01",
    "id": "019"
  },
  {
    "name": "Thanh Trì",
    "name_en": "Thanh Tri",
    "full_name": "Huyện Thanh Trì",
    "full_name_en": "Thanh Tri District",
    "code_name": "thanh_tri",
    "province_id": "01",
    "id": "020"
  },
  {
    "name": "Bắc Từ Liêm",
    "name_en": "Bac Tu Liem",
    "full_name": "Quận Bắc Từ Liêm",
    "full_name_en": "Bac Tu Liem District",
    "code_name": "bac_tu_liem",
    "province_id": "01",
    "id": "021"
  },
  {
    "name": "Hà Giang",
    "name_en": "Ha Giang",
    "full_name": "Thành phố Hà Giang",
    "full_name_en": "Ha Giang City",
    "code_name": "ha_giang",
    "province_id": "02",
    "id": "024"
  },
  {
    "name": "Đồng Văn",
    "name_en": "Dong Van",
    "full_name": "Huyện Đồng Văn",
    "full_name_en": "Dong Van District",
    "code_name": "dong_van",
    "province_id": "02",
    "id": "026"
  },
  {
    "name": "Mèo Vạc",
    "name_en": "Meo Vac",
    "full_name": "Huyện Mèo Vạc",
    "full_name_en": "Meo Vac District",
    "code_name": "meo_vac",
    "province_id": "02",
    "id": "027"
  },
  {
    "name": "Yên Minh",
    "name_en": "Yen Minh",
    "full_name": "Huyện Yên Minh",
    "full_name_en": "Yen Minh District",
    "code_name": "yen_minh",
    "province_id": "02",
    "id": "028"
  },
  {
    "name": "Quản Bạ",
    "name_en": "Quan Ba",
    "full_name": "Huyện Quản Bạ",
    "full_name_en": "Quan Ba District",
    "code_name": "quan_ba",
    "province_id": "02",
    "id": "029"
  },
  {
    "name": "Vị Xuyên",
    "name_en": "Vi Xuyen",
    "full_name": "Huyện Vị Xuyên",
    "full_name_en": "Vi Xuyen District",
    "code_name": "vi_xuyen",
    "province_id": "02",
    "id": "030"
  },
  {
    "name": "Bắc Mê",
    "name_en": "Bac Me",
    "full_name": "Huyện Bắc Mê",
    "full_name_en": "Bac Me District",
    "code_name": "bac_me",
    "province_id": "02",
    "id": "031"
  },
  {
    "name": "Hoàng Su Phì",
    "name_en": "Hoang Su Phi",
    "full_name": "Huyện Hoàng Su Phì",
    "full_name_en": "Hoang Su Phi District",
    "code_name": "hoang_su_phi",
    "province_id": "02",
    "id": "032"
  },
  {
    "name": "Xín Mần",
    "name_en": "Xin Man",
    "full_name": "Huyện Xín Mần",
    "full_name_en": "Xin Man District",
    "code_name": "xin_man",
    "province_id": "02",
    "id": "033"
  },
  {
    "name": "Bắc Quang",
    "name_en": "Bac Quang",
    "full_name": "Huyện Bắc Quang",
    "full_name_en": "Bac Quang District",
    "code_name": "bac_quang",
    "province_id": "02",
    "id": "034"
  },
  {
    "name": "Quang Bình",
    "name_en": "Quang Binh",
    "full_name": "Huyện Quang Bình",
    "full_name_en": "Quang Binh District",
    "code_name": "quang_binh",
    "province_id": "02",
    "id": "035"
  },
  {
    "name": "Cao Bằng",
    "name_en": "Cao Bang",
    "full_name": "Thành phố Cao Bằng",
    "full_name_en": "Cao Bang City",
    "code_name": "cao_bang",
    "province_id": "04",
    "id": "040"
  },
  {
    "name": "Bảo Lâm",
    "name_en": "Bao Lam",
    "full_name": "Huyện Bảo Lâm",
    "full_name_en": "Bao Lam District",
    "code_name": "bao_lam",
    "province_id": "04",
    "id": "042"
  },
  {
    "name": "Bảo Lạc",
    "name_en": "Bao Lac",
    "full_name": "Huyện Bảo Lạc",
    "full_name_en": "Bao Lac District",
    "code_name": "bao_lac",
    "province_id": "04",
    "id": "043"
  },
  {
    "name": "Hà Quảng",
    "name_en": "Ha Quang",
    "full_name": "Huyện Hà Quảng",
    "full_name_en": "Ha Quang District",
    "code_name": "ha_quang",
    "province_id": "04",
    "id": "045"
  },
  {
    "name": "Trùng Khánh",
    "name_en": "Trung Khanh",
    "full_name": "Huyện Trùng Khánh",
    "full_name_en": "Trung Khanh District",
    "code_name": "trung_khanh",
    "province_id": "04",
    "id": "047"
  },
  {
    "name": "Hạ Lang",
    "name_en": "Ha Lang",
    "full_name": "Huyện Hạ Lang",
    "full_name_en": "Ha Lang District",
    "code_name": "ha_lang",
    "province_id": "04",
    "id": "048"
  },
  {
    "name": "Quảng Hòa",
    "name_en": "Quang Hoa",
    "full_name": "Huyện Quảng Hòa",
    "full_name_en": "Quang Hoa District",
    "code_name": "quang_hoa",
    "province_id": "04",
    "id": "049"
  },
  {
    "name": "Hoà An",
    "name_en": "Hoa An",
    "full_name": "Huyện Hoà An",
    "full_name_en": "Hoa An District",
    "code_name": "hoa_an",
    "province_id": "04",
    "id": "051"
  },
  {
    "name": "Nguyên Bình",
    "name_en": "Nguyen Binh",
    "full_name": "Huyện Nguyên Bình",
    "full_name_en": "Nguyen Binh District",
    "code_name": "nguyen_binh",
    "province_id": "04",
    "id": "052"
  },
  {
    "name": "Thạch An",
    "name_en": "Thach An",
    "full_name": "Huyện Thạch An",
    "full_name_en": "Thach An District",
    "code_name": "thach_an",
    "province_id": "04",
    "id": "053"
  },
  {
    "name": "Bắc Kạn",
    "name_en": "Bac Kan",
    "full_name": "Thành phố Bắc Kạn",
    "full_name_en": "Bac Kan City",
    "code_name": "bac_kan",
    "province_id": "06",
    "id": "058"
  },
  {
    "name": "Pác Nặm",
    "name_en": "Pac Nam",
    "full_name": "Huyện Pác Nặm",
    "full_name_en": "Pac Nam District",
    "code_name": "pac_nam",
    "province_id": "06",
    "id": "060"
  },
  {
    "name": "Ba Bể",
    "name_en": "Ba Be",
    "full_name": "Huyện Ba Bể",
    "full_name_en": "Ba Be District",
    "code_name": "ba_be",
    "province_id": "06",
    "id": "061"
  },
  {
    "name": "Ngân Sơn",
    "name_en": "Ngan Son",
    "full_name": "Huyện Ngân Sơn",
    "full_name_en": "Ngan Son District",
    "code_name": "ngan_son",
    "province_id": "06",
    "id": "062"
  },
  {
    "name": "Bạch Thông",
    "name_en": "Bach Thong",
    "full_name": "Huyện Bạch Thông",
    "full_name_en": "Bach Thong District",
    "code_name": "bach_thong",
    "province_id": "06",
    "id": "063"
  },
  {
    "name": "Chợ Đồn",
    "name_en": "Cho Don",
    "full_name": "Huyện Chợ Đồn",
    "full_name_en": "Cho Don District",
    "code_name": "cho_don",
    "province_id": "06",
    "id": "064"
  },
  {
    "name": "Chợ Mới",
    "name_en": "Cho Moi",
    "full_name": "Huyện Chợ Mới",
    "full_name_en": "Cho Moi District",
    "code_name": "cho_moi",
    "province_id": "06",
    "id": "065"
  },
  {
    "name": "Na Rì",
    "name_en": "Na Ri",
    "full_name": "Huyện Na Rì",
    "full_name_en": "Na Ri District",
    "code_name": "na_ri",
    "province_id": "06",
    "id": "066"
  },
  {
    "name": "Tuyên Quang",
    "name_en": "Tuyen Quang",
    "full_name": "Thành phố Tuyên Quang",
    "full_name_en": "Tuyen Quang City",
    "code_name": "tuyen_quang",
    "province_id": "08",
    "id": "070"
  },
  {
    "name": "Lâm Bình",
    "name_en": "Lam Binh",
    "full_name": "Huyện Lâm Bình",
    "full_name_en": "Lam Binh District",
    "code_name": "lam_binh",
    "province_id": "08",
    "id": "071"
  },
  {
    "name": "Na Hang",
    "name_en": "Na Hang",
    "full_name": "Huyện Na Hang",
    "full_name_en": "Na Hang District",
    "code_name": "na_hang",
    "province_id": "08",
    "id": "072"
  },
  {
    "name": "Chiêm Hóa",
    "name_en": "Chiem Hoa",
    "full_name": "Huyện Chiêm Hóa",
    "full_name_en": "Chiem Hoa District",
    "code_name": "chiem_hoa",
    "province_id": "08",
    "id": "073"
  },
  {
    "name": "Hàm Yên",
    "name_en": "Ham Yen",
    "full_name": "Huyện Hàm Yên",
    "full_name_en": "Ham Yen District",
    "code_name": "ham_yen",
    "province_id": "08",
    "id": "074"
  },
  {
    "name": "Yên Sơn",
    "name_en": "Yen Son",
    "full_name": "Huyện Yên Sơn",
    "full_name_en": "Yen Son District",
    "code_name": "yen_son",
    "province_id": "08",
    "id": "075"
  },
  {
    "name": "Sơn Dương",
    "name_en": "Son Duong",
    "full_name": "Huyện Sơn Dương",
    "full_name_en": "Son Duong District",
    "code_name": "son_duong",
    "province_id": "08",
    "id": "076"
  },
  {
    "name": "Lào Cai",
    "name_en": "Lao Cai",
    "full_name": "Thành phố Lào Cai",
    "full_name_en": "Lao Cai City",
    "code_name": "lao_cai",
    "province_id": "10",
    "id": "080"
  },
  {
    "name": "Bát Xát",
    "name_en": "Bat Xat",
    "full_name": "Huyện Bát Xát",
    "full_name_en": "Bat Xat District",
    "code_name": "bat_xat",
    "province_id": "10",
    "id": "082"
  },
  {
    "name": "Mường Khương",
    "name_en": "Muong Khuong",
    "full_name": "Huyện Mường Khương",
    "full_name_en": "Muong Khuong District",
    "code_name": "muong_khuong",
    "province_id": "10",
    "id": "083"
  },
  {
    "name": "Si Ma Cai",
    "name_en": "Si Ma Cai",
    "full_name": "Huyện Si Ma Cai",
    "full_name_en": "Si Ma Cai District",
    "code_name": "si_ma_cai",
    "province_id": "10",
    "id": "084"
  },
  {
    "name": "Bắc Hà",
    "name_en": "Bac Ha",
    "full_name": "Huyện Bắc Hà",
    "full_name_en": "Bac Ha District",
    "code_name": "bac_ha",
    "province_id": "10",
    "id": "085"
  },
  {
    "name": "Bảo Thắng",
    "name_en": "Bao Thang",
    "full_name": "Huyện Bảo Thắng",
    "full_name_en": "Bao Thang District",
    "code_name": "bao_thang",
    "province_id": "10",
    "id": "086"
  },
  {
    "name": "Bảo Yên",
    "name_en": "Bao Yen",
    "full_name": "Huyện Bảo Yên",
    "full_name_en": "Bao Yen District",
    "code_name": "bao_yen",
    "province_id": "10",
    "id": "087"
  },
  {
    "name": "Sa Pa",
    "name_en": "Sa Pa",
    "full_name": "Thị xã Sa Pa",
    "full_name_en": "Sa Pa Town",
    "code_name": "sa_pa",
    "province_id": "10",
    "id": "088"
  },
  {
    "name": "Văn Bàn",
    "name_en": "Van Ban",
    "full_name": "Huyện Văn Bàn",
    "full_name_en": "Van Ban District",
    "code_name": "van_ban",
    "province_id": "10",
    "id": "089"
  },
  {
    "name": "Điện Biên Phủ",
    "name_en": "Dien Bien Phu",
    "full_name": "Thành phố Điện Biên Phủ",
    "full_name_en": "Dien Bien Phu City",
    "code_name": "dien_bien_phu",
    "province_id": "11",
    "id": "094"
  },
  {
    "name": "Mường Lay",
    "name_en": "Muong Lay",
    "full_name": "Thị xã Mường Lay",
    "full_name_en": "Muong Lay Town",
    "code_name": "muong_lay",
    "province_id": "11",
    "id": "095"
  },
  {
    "name": "Mường Nhé",
    "name_en": "Muong Nhe",
    "full_name": "Huyện Mường Nhé",
    "full_name_en": "Muong Nhe District",
    "code_name": "muong_nhe",
    "province_id": "11",
    "id": "096"
  },
  {
    "name": "Mường Chà",
    "name_en": "Muong Cha",
    "full_name": "Huyện Mường Chà",
    "full_name_en": "Muong Cha District",
    "code_name": "muong_cha",
    "province_id": "11",
    "id": "097"
  },
  {
    "name": "Tủa Chùa",
    "name_en": "Tua Chua",
    "full_name": "Huyện Tủa Chùa",
    "full_name_en": "Tua Chua District",
    "code_name": "tua_chua",
    "province_id": "11",
    "id": "098"
  },
  {
    "name": "Tuần Giáo",
    "name_en": "Tuan Giao",
    "full_name": "Huyện Tuần Giáo",
    "full_name_en": "Tuan Giao District",
    "code_name": "tuan_giao",
    "province_id": "11",
    "id": "099"
  },
  {
    "name": "Điện Biên",
    "name_en": "Dien Bien",
    "full_name": "Huyện Điện Biên",
    "full_name_en": "Dien Bien District",
    "code_name": "dien_bien",
    "province_id": "11",
    "id": "100"
  },
  {
    "name": "Điện Biên Đông",
    "name_en": "Dien Bien Dong",
    "full_name": "Huyện Điện Biên Đông",
    "full_name_en": "Dien Bien Dong District",
    "code_name": "dien_bien_dong",
    "province_id": "11",
    "id": "101"
  },
  {
    "name": "Mường Ảng",
    "name_en": "Muong Ang",
    "full_name": "Huyện Mường Ảng",
    "full_name_en": "Muong Ang District",
    "code_name": "muong_ang",
    "province_id": "11",
    "id": "102"
  },
  {
    "name": "Nậm Pồ",
    "name_en": "Nam Po",
    "full_name": "Huyện Nậm Pồ",
    "full_name_en": "Nam Po District",
    "code_name": "nam_po",
    "province_id": "11",
    "id": "103"
  },
  {
    "name": "Lai Châu",
    "name_en": "Lai Chau",
    "full_name": "Thành phố Lai Châu",
    "full_name_en": "Lai Chau City",
    "code_name": "lai_chau",
    "province_id": "12",
    "id": "105"
  },
  {
    "name": "Tam Đường",
    "name_en": "Tam Duong",
    "full_name": "Huyện Tam Đường",
    "full_name_en": "Tam Duong District",
    "code_name": "tam_duong",
    "province_id": "12",
    "id": "106"
  },
  {
    "name": "Mường Tè",
    "name_en": "Muong Te",
    "full_name": "Huyện Mường Tè",
    "full_name_en": "Muong Te District",
    "code_name": "muong_te",
    "province_id": "12",
    "id": "107"
  },
  {
    "name": "Sìn Hồ",
    "name_en": "Sin Ho",
    "full_name": "Huyện Sìn Hồ",
    "full_name_en": "Sin Ho District",
    "code_name": "sin_ho",
    "province_id": "12",
    "id": "108"
  },
  {
    "name": "Phong Thổ",
    "name_en": "Phong Tho",
    "full_name": "Huyện Phong Thổ",
    "full_name_en": "Phong Tho District",
    "code_name": "phong_tho",
    "province_id": "12",
    "id": "109"
  },
  {
    "name": "Than Uyên",
    "name_en": "Than Uyen",
    "full_name": "Huyện Than Uyên",
    "full_name_en": "Than Uyen District",
    "code_name": "than_uyen",
    "province_id": "12",
    "id": "110"
  },
  {
    "name": "Tân Uyên",
    "name_en": "Tan Uyen",
    "full_name": "Huyện Tân Uyên",
    "full_name_en": "Tan Uyen District",
    "code_name": "tan_uyen",
    "province_id": "12",
    "id": "111"
  },
  {
    "name": "Nậm Nhùn",
    "name_en": "Nam Nhun",
    "full_name": "Huyện Nậm Nhùn",
    "full_name_en": "Nam Nhun District",
    "code_name": "nam_nhun",
    "province_id": "12",
    "id": "112"
  },
  {
    "name": "Sơn La",
    "name_en": "Son La",
    "full_name": "Thành phố Sơn La",
    "full_name_en": "Son La City",
    "code_name": "son_la",
    "province_id": "14",
    "id": "116"
  },
  {
    "name": "Quỳnh Nhai",
    "name_en": "Quynh Nhai",
    "full_name": "Huyện Quỳnh Nhai",
    "full_name_en": "Quynh Nhai District",
    "code_name": "quynh_nhai",
    "province_id": "14",
    "id": "118"
  },
  {
    "name": "Thuận Châu",
    "name_en": "Thuan Chau",
    "full_name": "Huyện Thuận Châu",
    "full_name_en": "Thuan Chau District",
    "code_name": "thuan_chau",
    "province_id": "14",
    "id": "119"
  },
  {
    "name": "Mường La",
    "name_en": "Muong La",
    "full_name": "Huyện Mường La",
    "full_name_en": "Muong La District",
    "code_name": "muong_la",
    "province_id": "14",
    "id": "120"
  },
  {
    "name": "Bắc Yên",
    "name_en": "Bac Yen",
    "full_name": "Huyện Bắc Yên",
    "full_name_en": "Bac Yen District",
    "code_name": "bac_yen",
    "province_id": "14",
    "id": "121"
  },
  {
    "name": "Phù Yên",
    "name_en": "Phu Yen",
    "full_name": "Huyện Phù Yên",
    "full_name_en": "Phu Yen District",
    "code_name": "phu_yen",
    "province_id": "14",
    "id": "122"
  },
  {
    "name": "Mộc Châu",
    "name_en": "Moc Chau",
    "full_name": "Huyện Mộc Châu",
    "full_name_en": "Moc Chau District",
    "code_name": "moc_chau",
    "province_id": "14",
    "id": "123"
  },
  {
    "name": "Yên Châu",
    "name_en": "Yen Chau",
    "full_name": "Huyện Yên Châu",
    "full_name_en": "Yen Chau District",
    "code_name": "yen_chau",
    "province_id": "14",
    "id": "124"
  },
  {
    "name": "Mai Sơn",
    "name_en": "Mai Son",
    "full_name": "Huyện Mai Sơn",
    "full_name_en": "Mai Son District",
    "code_name": "mai_son",
    "province_id": "14",
    "id": "125"
  },
  {
    "name": "Sông Mã",
    "name_en": "Song Ma",
    "full_name": "Huyện Sông Mã",
    "full_name_en": "Song Ma District",
    "code_name": "song_ma",
    "province_id": "14",
    "id": "126"
  },
  {
    "name": "Sốp Cộp",
    "name_en": "Sop Cop",
    "full_name": "Huyện Sốp Cộp",
    "full_name_en": "Sop Cop District",
    "code_name": "sop_cop",
    "province_id": "14",
    "id": "127"
  },
  {
    "name": "Vân Hồ",
    "name_en": "Van Ho",
    "full_name": "Huyện Vân Hồ",
    "full_name_en": "Van Ho District",
    "code_name": "van_ho",
    "province_id": "14",
    "id": "128"
  },
  {
    "name": "Yên Bái",
    "name_en": "Yen Bai",
    "full_name": "Thành phố Yên Bái",
    "full_name_en": "Yen Bai City",
    "code_name": "yen_bai",
    "province_id": "15",
    "id": "132"
  },
  {
    "name": "Nghĩa Lộ",
    "name_en": "Nghia Lo",
    "full_name": "Thị xã Nghĩa Lộ",
    "full_name_en": "Nghia Lo Town",
    "code_name": "nghia_lo",
    "province_id": "15",
    "id": "133"
  },
  {
    "name": "Lục Yên",
    "name_en": "Luc Yen",
    "full_name": "Huyện Lục Yên",
    "full_name_en": "Luc Yen District",
    "code_name": "luc_yen",
    "province_id": "15",
    "id": "135"
  },
  {
    "name": "Văn Yên",
    "name_en": "Van Yen",
    "full_name": "Huyện Văn Yên",
    "full_name_en": "Van Yen District",
    "code_name": "van_yen",
    "province_id": "15",
    "id": "136"
  },
  {
    "name": "Mù Căng Chải",
    "name_en": "Mu Cang Chai",
    "full_name": "Huyện Mù Căng Chải",
    "full_name_en": "Mu Cang Chai District",
    "code_name": "mu_cang_chai",
    "province_id": "15",
    "id": "137"
  },
  {
    "name": "Trấn Yên",
    "name_en": "Tran Yen",
    "full_name": "Huyện Trấn Yên",
    "full_name_en": "Tran Yen District",
    "code_name": "tran_yen",
    "province_id": "15",
    "id": "138"
  },
  {
    "name": "Trạm Tấu",
    "name_en": "Tram Tau",
    "full_name": "Huyện Trạm Tấu",
    "full_name_en": "Tram Tau District",
    "code_name": "tram_tau",
    "province_id": "15",
    "id": "139"
  },
  {
    "name": "Văn Chấn",
    "name_en": "Van Chan",
    "full_name": "Huyện Văn Chấn",
    "full_name_en": "Van Chan District",
    "code_name": "van_chan",
    "province_id": "15",
    "id": "140"
  },
  {
    "name": "Yên Bình",
    "name_en": "Yen Binh",
    "full_name": "Huyện Yên Bình",
    "full_name_en": "Yen Binh District",
    "code_name": "yen_binh",
    "province_id": "15",
    "id": "141"
  },
  {
    "name": "Hòa Bình",
    "name_en": "Hoa Binh",
    "full_name": "Thành phố Hòa Bình",
    "full_name_en": "Hoa Binh City",
    "code_name": "hoa_binh",
    "province_id": "17",
    "id": "148"
  },
  {
    "name": "Đà Bắc",
    "name_en": "Da Bac",
    "full_name": "Huyện Đà Bắc",
    "full_name_en": "Da Bac District",
    "code_name": "da_bac",
    "province_id": "17",
    "id": "150"
  },
  {
    "name": "Lương Sơn",
    "name_en": "Luong Son",
    "full_name": "Huyện Lương Sơn",
    "full_name_en": "Luong Son District",
    "code_name": "luong_son",
    "province_id": "17",
    "id": "152"
  },
  {
    "name": "Kim Bôi",
    "name_en": "Kim Boi",
    "full_name": "Huyện Kim Bôi",
    "full_name_en": "Kim Boi District",
    "code_name": "kim_boi",
    "province_id": "17",
    "id": "153"
  },
  {
    "name": "Cao Phong",
    "name_en": "Cao Phong",
    "full_name": "Huyện Cao Phong",
    "full_name_en": "Cao Phong District",
    "code_name": "cao_phong",
    "province_id": "17",
    "id": "154"
  },
  {
    "name": "Tân Lạc",
    "name_en": "Tan Lac",
    "full_name": "Huyện Tân Lạc",
    "full_name_en": "Tan Lac District",
    "code_name": "tan_lac",
    "province_id": "17",
    "id": "155"
  },
  {
    "name": "Mai Châu",
    "name_en": "Mai Chau",
    "full_name": "Huyện Mai Châu",
    "full_name_en": "Mai Chau District",
    "code_name": "mai_chau",
    "province_id": "17",
    "id": "156"
  },
  {
    "name": "Lạc Sơn",
    "name_en": "Lac Son",
    "full_name": "Huyện Lạc Sơn",
    "full_name_en": "Lac Son District",
    "code_name": "lac_son",
    "province_id": "17",
    "id": "157"
  },
  {
    "name": "Yên Thủy",
    "name_en": "Yen Thuy",
    "full_name": "Huyện Yên Thủy",
    "full_name_en": "Yen Thuy District",
    "code_name": "yen_thuy",
    "province_id": "17",
    "id": "158"
  },
  {
    "name": "Lạc Thủy",
    "name_en": "Lac Thuy",
    "full_name": "Huyện Lạc Thủy",
    "full_name_en": "Lac Thuy District",
    "code_name": "lac_thuy",
    "province_id": "17",
    "id": "159"
  },
  {
    "name": "Thái Nguyên",
    "name_en": "Thai Nguyen",
    "full_name": "Thành phố Thái Nguyên",
    "full_name_en": "Thai Nguyen City",
    "code_name": "thai_nguyen",
    "province_id": "19",
    "id": "164"
  },
  {
    "name": "Sông Công",
    "name_en": "Song Cong",
    "full_name": "Thành phố Sông Công",
    "full_name_en": "Song Cong City",
    "code_name": "song_cong",
    "province_id": "19",
    "id": "165"
  },
  {
    "name": "Định Hóa",
    "name_en": "Dinh Hoa",
    "full_name": "Huyện Định Hóa",
    "full_name_en": "Dinh Hoa District",
    "code_name": "dinh_hoa",
    "province_id": "19",
    "id": "167"
  },
  {
    "name": "Phú Lương",
    "name_en": "Phu Luong",
    "full_name": "Huyện Phú Lương",
    "full_name_en": "Phu Luong District",
    "code_name": "phu_luong",
    "province_id": "19",
    "id": "168"
  },
  {
    "name": "Đồng Hỷ",
    "name_en": "Dong Hy",
    "full_name": "Huyện Đồng Hỷ",
    "full_name_en": "Dong Hy District",
    "code_name": "dong_hy",
    "province_id": "19",
    "id": "169"
  },
  {
    "name": "Võ Nhai",
    "name_en": "Vo Nhai",
    "full_name": "Huyện Võ Nhai",
    "full_name_en": "Vo Nhai District",
    "code_name": "vo_nhai",
    "province_id": "19",
    "id": "170"
  },
  {
    "name": "Đại Từ",
    "name_en": "Dai Tu",
    "full_name": "Huyện Đại Từ",
    "full_name_en": "Dai Tu District",
    "code_name": "dai_tu",
    "province_id": "19",
    "id": "171"
  },
  {
    "name": "Phổ Yên",
    "name_en": "Pho Yen",
    "full_name": "Thành phố Phổ Yên",
    "full_name_en": "Pho Yen City",
    "code_name": "pho_yen",
    "province_id": "19",
    "id": "172"
  },
  {
    "name": "Phú Bình",
    "name_en": "Phu Binh",
    "full_name": "Huyện Phú Bình",
    "full_name_en": "Phu Binh District",
    "code_name": "phu_binh",
    "province_id": "19",
    "id": "173"
  },
  {
    "name": "Lạng Sơn",
    "name_en": "Lang Son",
    "full_name": "Thành phố Lạng Sơn",
    "full_name_en": "Lang Son City",
    "code_name": "lang_son",
    "province_id": "20",
    "id": "178"
  },
  {
    "name": "Tràng Định",
    "name_en": "Trang Dinh",
    "full_name": "Huyện Tràng Định",
    "full_name_en": "Trang Dinh District",
    "code_name": "trang_dinh",
    "province_id": "20",
    "id": "180"
  },
  {
    "name": "Bình Gia",
    "name_en": "Binh Gia",
    "full_name": "Huyện Bình Gia",
    "full_name_en": "Binh Gia District",
    "code_name": "binh_gia",
    "province_id": "20",
    "id": "181"
  },
  {
    "name": "Văn Lãng",
    "name_en": "Van Lang",
    "full_name": "Huyện Văn Lãng",
    "full_name_en": "Van Lang District",
    "code_name": "van_lang",
    "province_id": "20",
    "id": "182"
  },
  {
    "name": "Cao Lộc",
    "name_en": "Cao Loc",
    "full_name": "Huyện Cao Lộc",
    "full_name_en": "Cao Loc District",
    "code_name": "cao_loc",
    "province_id": "20",
    "id": "183"
  },
  {
    "name": "Văn Quan",
    "name_en": "Van Quan",
    "full_name": "Huyện Văn Quan",
    "full_name_en": "Van Quan District",
    "code_name": "van_quan",
    "province_id": "20",
    "id": "184"
  },
  {
    "name": "Bắc Sơn",
    "name_en": "Bac Son",
    "full_name": "Huyện Bắc Sơn",
    "full_name_en": "Bac Son District",
    "code_name": "bac_son",
    "province_id": "20",
    "id": "185"
  },
  {
    "name": "Hữu Lũng",
    "name_en": "Huu Lung",
    "full_name": "Huyện Hữu Lũng",
    "full_name_en": "Huu Lung District",
    "code_name": "huu_lung",
    "province_id": "20",
    "id": "186"
  },
  {
    "name": "Chi Lăng",
    "name_en": "Chi Lang",
    "full_name": "Huyện Chi Lăng",
    "full_name_en": "Chi Lang District",
    "code_name": "chi_lang",
    "province_id": "20",
    "id": "187"
  },
  {
    "name": "Lộc Bình",
    "name_en": "Loc Binh",
    "full_name": "Huyện Lộc Bình",
    "full_name_en": "Loc Binh District",
    "code_name": "loc_binh",
    "province_id": "20",
    "id": "188"
  },
  {
    "name": "Đình Lập",
    "name_en": "Dinh Lap",
    "full_name": "Huyện Đình Lập",
    "full_name_en": "Dinh Lap District",
    "code_name": "dinh_lap",
    "province_id": "20",
    "id": "189"
  },
  {
    "name": "Hạ Long",
    "name_en": "Ha Long",
    "full_name": "Thành phố Hạ Long",
    "full_name_en": "Ha Long City",
    "code_name": "ha_long",
    "province_id": "22",
    "id": "193"
  },
  {
    "name": "Móng Cái",
    "name_en": "Mong Cai",
    "full_name": "Thành phố Móng Cái",
    "full_name_en": "Mong Cai City",
    "code_name": "mong_cai",
    "province_id": "22",
    "id": "194"
  },
  {
    "name": "Cẩm Phả",
    "name_en": "Cam Pha",
    "full_name": "Thành phố Cẩm Phả",
    "full_name_en": "Cam Pha City",
    "code_name": "cam_pha",
    "province_id": "22",
    "id": "195"
  },
  {
    "name": "Uông Bí",
    "name_en": "Uong Bi",
    "full_name": "Thành phố Uông Bí",
    "full_name_en": "Uong Bi City",
    "code_name": "uong_bi",
    "province_id": "22",
    "id": "196"
  },
  {
    "name": "Bình Liêu",
    "name_en": "Binh Lieu",
    "full_name": "Huyện Bình Liêu",
    "full_name_en": "Binh Lieu District",
    "code_name": "binh_lieu",
    "province_id": "22",
    "id": "198"
  },
  {
    "name": "Tiên Yên",
    "name_en": "Tien Yen",
    "full_name": "Huyện Tiên Yên",
    "full_name_en": "Tien Yen District",
    "code_name": "tien_yen",
    "province_id": "22",
    "id": "199"
  },
  {
    "name": "Đầm Hà",
    "name_en": "Dam Ha",
    "full_name": "Huyện Đầm Hà",
    "full_name_en": "Dam Ha District",
    "code_name": "dam_ha",
    "province_id": "22",
    "id": "200"
  },
  {
    "name": "Hải Hà",
    "name_en": "Hai Ha",
    "full_name": "Huyện Hải Hà",
    "full_name_en": "Hai Ha District",
    "code_name": "hai_ha",
    "province_id": "22",
    "id": "201"
  },
  {
    "name": "Ba Chẽ",
    "name_en": "Ba Che",
    "full_name": "Huyện Ba Chẽ",
    "full_name_en": "Ba Che District",
    "code_name": "ba_che",
    "province_id": "22",
    "id": "202"
  },
  {
    "name": "Vân Đồn",
    "name_en": "Van Don",
    "full_name": "Huyện Vân Đồn",
    "full_name_en": "Van Don District",
    "code_name": "van_don",
    "province_id": "22",
    "id": "203"
  },
  {
    "name": "Đông Triều",
    "name_en": "Dong Trieu",
    "full_name": "Thị xã Đông Triều",
    "full_name_en": "Dong Trieu Town",
    "code_name": "dong_trieu",
    "province_id": "22",
    "id": "205"
  },
  {
    "name": "Quảng Yên",
    "name_en": "Quang Yen",
    "full_name": "Thị xã Quảng Yên",
    "full_name_en": "Quang Yen Town",
    "code_name": "quang_yen",
    "province_id": "22",
    "id": "206"
  },
  {
    "name": "Cô Tô",
    "name_en": "Co To",
    "full_name": "Huyện Cô Tô",
    "full_name_en": "Co To District",
    "code_name": "co_to",
    "province_id": "22",
    "id": "207"
  },
  {
    "name": "Bắc Giang",
    "name_en": "Bac Giang",
    "full_name": "Thành phố Bắc Giang",
    "full_name_en": "Bac Giang City",
    "code_name": "bac_giang",
    "province_id": "24",
    "id": "213"
  },
  {
    "name": "Yên Thế",
    "name_en": "Yen The",
    "full_name": "Huyện Yên Thế",
    "full_name_en": "Yen The District",
    "code_name": "yen_the",
    "province_id": "24",
    "id": "215"
  },
  {
    "name": "Tân Yên",
    "name_en": "Tan Yen",
    "full_name": "Huyện Tân Yên",
    "full_name_en": "Tan Yen District",
    "code_name": "tan_yen",
    "province_id": "24",
    "id": "216"
  },
  {
    "name": "Lạng Giang",
    "name_en": "Lang Giang",
    "full_name": "Huyện Lạng Giang",
    "full_name_en": "Lang Giang District",
    "code_name": "lang_giang",
    "province_id": "24",
    "id": "217"
  },
  {
    "name": "Lục Nam",
    "name_en": "Luc Nam",
    "full_name": "Huyện Lục Nam",
    "full_name_en": "Luc Nam District",
    "code_name": "luc_nam",
    "province_id": "24",
    "id": "218"
  },
  {
    "name": "Lục Ngạn",
    "name_en": "Luc Ngan",
    "full_name": "Huyện Lục Ngạn",
    "full_name_en": "Luc Ngan District",
    "code_name": "luc_ngan",
    "province_id": "24",
    "id": "219"
  },
  {
    "name": "Sơn Động",
    "name_en": "Son Dong",
    "full_name": "Huyện Sơn Động",
    "full_name_en": "Son Dong District",
    "code_name": "son_dong",
    "province_id": "24",
    "id": "220"
  },
  {
    "name": "Yên Dũng",
    "name_en": "Yen Dung",
    "full_name": "Huyện Yên Dũng",
    "full_name_en": "Yen Dung District",
    "code_name": "yen_dung",
    "province_id": "24",
    "id": "221"
  },
  {
    "name": "Việt Yên",
    "name_en": "Viet Yen",
    "full_name": "Thị xã Việt Yên",
    "full_name_en": "Viet Yen Town",
    "code_name": "viet_yen",
    "province_id": "24",
    "id": "222"
  },
  {
    "name": "Hiệp Hòa",
    "name_en": "Hiep Hoa",
    "full_name": "Huyện Hiệp Hòa",
    "full_name_en": "Hiep Hoa District",
    "code_name": "hiep_hoa",
    "province_id": "24",
    "id": "223"
  },
  {
    "name": "Việt Trì",
    "name_en": "Viet Tri",
    "full_name": "Thành phố Việt Trì",
    "full_name_en": "Viet Tri City",
    "code_name": "viet_tri",
    "province_id": "25",
    "id": "227"
  },
  {
    "name": "Phú Thọ",
    "name_en": "Phu Tho",
    "full_name": "Thị xã Phú Thọ",
    "full_name_en": "Phu Tho Town",
    "code_name": "phu_tho",
    "province_id": "25",
    "id": "228"
  },
  {
    "name": "Đoan Hùng",
    "name_en": "Doan Hung",
    "full_name": "Huyện Đoan Hùng",
    "full_name_en": "Doan Hung District",
    "code_name": "doan_hung",
    "province_id": "25",
    "id": "230"
  },
  {
    "name": "Hạ Hoà",
    "name_en": "Ha Hoa",
    "full_name": "Huyện Hạ Hoà",
    "full_name_en": "Ha Hoa District",
    "code_name": "ha_hoa",
    "province_id": "25",
    "id": "231"
  },
  {
    "name": "Thanh Ba",
    "name_en": "Thanh Ba",
    "full_name": "Huyện Thanh Ba",
    "full_name_en": "Thanh Ba District",
    "code_name": "thanh_ba",
    "province_id": "25",
    "id": "232"
  },
  {
    "name": "Phù Ninh",
    "name_en": "Phu Ninh",
    "full_name": "Huyện Phù Ninh",
    "full_name_en": "Phu Ninh District",
    "code_name": "phu_ninh",
    "province_id": "25",
    "id": "233"
  },
  {
    "name": "Yên Lập",
    "name_en": "Yen Lap",
    "full_name": "Huyện Yên Lập",
    "full_name_en": "Yen Lap District",
    "code_name": "yen_lap",
    "province_id": "25",
    "id": "234"
  },
  {
    "name": "Cẩm Khê",
    "name_en": "Cam Khe",
    "full_name": "Huyện Cẩm Khê",
    "full_name_en": "Cam Khe District",
    "code_name": "cam_khe",
    "province_id": "25",
    "id": "235"
  },
  {
    "name": "Tam Nông",
    "name_en": "Tam Nong",
    "full_name": "Huyện Tam Nông",
    "full_name_en": "Tam Nong District",
    "code_name": "tam_nong",
    "province_id": "25",
    "id": "236"
  },
  {
    "name": "Lâm Thao",
    "name_en": "Lam Thao",
    "full_name": "Huyện Lâm Thao",
    "full_name_en": "Lam Thao District",
    "code_name": "lam_thao",
    "province_id": "25",
    "id": "237"
  },
  {
    "name": "Thanh Sơn",
    "name_en": "Thanh Son",
    "full_name": "Huyện Thanh Sơn",
    "full_name_en": "Thanh Son District",
    "code_name": "thanh_son",
    "province_id": "25",
    "id": "238"
  },
  {
    "name": "Thanh Thuỷ",
    "name_en": "Thanh Thuy",
    "full_name": "Huyện Thanh Thuỷ",
    "full_name_en": "Thanh Thuy District",
    "code_name": "thanh_thuy",
    "province_id": "25",
    "id": "239"
  },
  {
    "name": "Tân Sơn",
    "name_en": "Tan Son",
    "full_name": "Huyện Tân Sơn",
    "full_name_en": "Tan Son District",
    "code_name": "tan_son",
    "province_id": "25",
    "id": "240"
  },
  {
    "name": "Vĩnh Yên",
    "name_en": "Vinh Yen",
    "full_name": "Thành phố Vĩnh Yên",
    "full_name_en": "Vinh Yen City",
    "code_name": "vinh_yen",
    "province_id": "26",
    "id": "243"
  },
  {
    "name": "Phúc Yên",
    "name_en": "Phuc Yen",
    "full_name": "Thành phố Phúc Yên",
    "full_name_en": "Phuc Yen City",
    "code_name": "phuc_yen",
    "province_id": "26",
    "id": "244"
  },
  {
    "name": "Lập Thạch",
    "name_en": "Lap Thach",
    "full_name": "Huyện Lập Thạch",
    "full_name_en": "Lap Thach District",
    "code_name": "lap_thach",
    "province_id": "26",
    "id": "246"
  },
  {
    "name": "Tam Dương",
    "name_en": "Tam Duong",
    "full_name": "Huyện Tam Dương",
    "full_name_en": "Tam Duong District",
    "code_name": "tam_duong",
    "province_id": "26",
    "id": "247"
  },
  {
    "name": "Tam Đảo",
    "name_en": "Tam Dao",
    "full_name": "Huyện Tam Đảo",
    "full_name_en": "Tam Dao District",
    "code_name": "tam_dao",
    "province_id": "26",
    "id": "248"
  },
  {
    "name": "Bình Xuyên",
    "name_en": "Binh Xuyen",
    "full_name": "Huyện Bình Xuyên",
    "full_name_en": "Binh Xuyen District",
    "code_name": "binh_xuyen",
    "province_id": "26",
    "id": "249"
  },
  {
    "name": "Mê Linh",
    "name_en": "Me Linh",
    "full_name": "Huyện Mê Linh",
    "full_name_en": "Me Linh District",
    "code_name": "me_linh",
    "province_id": "01",
    "id": "250"
  },
  {
    "name": "Yên Lạc",
    "name_en": "Yen Lac",
    "full_name": "Huyện Yên Lạc",
    "full_name_en": "Yen Lac District",
    "code_name": "yen_lac",
    "province_id": "26",
    "id": "251"
  },
  {
    "name": "Vĩnh Tường",
    "name_en": "Vinh Tuong",
    "full_name": "Huyện Vĩnh Tường",
    "full_name_en": "Vinh Tuong District",
    "code_name": "vinh_tuong",
    "province_id": "26",
    "id": "252"
  },
  {
    "name": "Sông Lô",
    "name_en": "Song Lo",
    "full_name": "Huyện Sông Lô",
    "full_name_en": "Song Lo District",
    "code_name": "song_lo",
    "province_id": "26",
    "id": "253"
  },
  {
    "name": "Bắc Ninh",
    "name_en": "Bac Ninh",
    "full_name": "Thành phố Bắc Ninh",
    "full_name_en": "Bac Ninh City",
    "code_name": "bac_ninh",
    "province_id": "27",
    "id": "256"
  },
  {
    "name": "Yên Phong",
    "name_en": "Yen Phong",
    "full_name": "Huyện Yên Phong",
    "full_name_en": "Yen Phong District",
    "code_name": "yen_phong",
    "province_id": "27",
    "id": "258"
  },
  {
    "name": "Quế Võ",
    "name_en": "Que Vo",
    "full_name": "Thị xã Quế Võ",
    "full_name_en": "Que Vo Town",
    "code_name": "que_vo",
    "province_id": "27",
    "id": "259"
  },
  {
    "name": "Tiên Du",
    "name_en": "Tien Du",
    "full_name": "Huyện Tiên Du",
    "full_name_en": "Tien Du District",
    "code_name": "tien_du",
    "province_id": "27",
    "id": "260"
  },
  {
    "name": "Từ Sơn",
    "name_en": "Tu Son",
    "full_name": "Thành phố Từ Sơn",
    "full_name_en": "Tu Son City",
    "code_name": "tu_son",
    "province_id": "27",
    "id": "261"
  },
  {
    "name": "Thuận Thành",
    "name_en": "Thuan Thanh",
    "full_name": "Thị xã Thuận Thành",
    "full_name_en": "Thuan Thanh Town",
    "code_name": "thuan_thanh",
    "province_id": "27",
    "id": "262"
  },
  {
    "name": "Gia Bình",
    "name_en": "Gia Binh",
    "full_name": "Huyện Gia Bình",
    "full_name_en": "Gia Binh District",
    "code_name": "gia_binh",
    "province_id": "27",
    "id": "263"
  },
  {
    "name": "Lương Tài",
    "name_en": "Luong Tai",
    "full_name": "Huyện Lương Tài",
    "full_name_en": "Luong Tai District",
    "code_name": "luong_tai",
    "province_id": "27",
    "id": "264"
  },
  {
    "name": "Hà Đông",
    "name_en": "Ha Dong",
    "full_name": "Quận Hà Đông",
    "full_name_en": "Ha Dong District",
    "code_name": "ha_dong",
    "province_id": "01",
    "id": "268"
  },
  {
    "name": "Sơn Tây",
    "name_en": "Son Tay",
    "full_name": "Thị xã Sơn Tây",
    "full_name_en": "Son Tay Town",
    "code_name": "son_tay",
    "province_id": "01",
    "id": "269"
  },
  {
    "name": "Ba Vì",
    "name_en": "Ba Vi",
    "full_name": "Huyện Ba Vì",
    "full_name_en": "Ba Vi District",
    "code_name": "ba_vi",
    "province_id": "01",
    "id": "271"
  },
  {
    "name": "Phúc Thọ",
    "name_en": "Phuc Tho",
    "full_name": "Huyện Phúc Thọ",
    "full_name_en": "Phuc Tho District",
    "code_name": "phuc_tho",
    "province_id": "01",
    "id": "272"
  },
  {
    "name": "Đan Phượng",
    "name_en": "Dan Phuong",
    "full_name": "Huyện Đan Phượng",
    "full_name_en": "Dan Phuong District",
    "code_name": "dan_phuong",
    "province_id": "01",
    "id": "273"
  },
  {
    "name": "Hoài Đức",
    "name_en": "Hoai Duc",
    "full_name": "Huyện Hoài Đức",
    "full_name_en": "Hoai Duc District",
    "code_name": "hoai_duc",
    "province_id": "01",
    "id": "274"
  },
  {
    "name": "Quốc Oai",
    "name_en": "Quoc Oai",
    "full_name": "Huyện Quốc Oai",
    "full_name_en": "Quoc Oai District",
    "code_name": "quoc_oai",
    "province_id": "01",
    "id": "275"
  },
  {
    "name": "Thạch Thất",
    "name_en": "Thach That",
    "full_name": "Huyện Thạch Thất",
    "full_name_en": "Thach That District",
    "code_name": "thach_that",
    "province_id": "01",
    "id": "276"
  },
  {
    "name": "Chương Mỹ",
    "name_en": "Chuong My",
    "full_name": "Huyện Chương Mỹ",
    "full_name_en": "Chuong My District",
    "code_name": "chuong_my",
    "province_id": "01",
    "id": "277"
  },
  {
    "name": "Thanh Oai",
    "name_en": "Thanh Oai",
    "full_name": "Huyện Thanh Oai",
    "full_name_en": "Thanh Oai District",
    "code_name": "thanh_oai",
    "province_id": "01",
    "id": "278"
  },
  {
    "name": "Thường Tín",
    "name_en": "Thuong Tin",
    "full_name": "Huyện Thường Tín",
    "full_name_en": "Thuong Tin District",
    "code_name": "thuong_tin",
    "province_id": "01",
    "id": "279"
  },
  {
    "name": "Phú Xuyên",
    "name_en": "Phu Xuyen",
    "full_name": "Huyện Phú Xuyên",
    "full_name_en": "Phu Xuyen District",
    "code_name": "phu_xuyen",
    "province_id": "01",
    "id": "280"
  },
  {
    "name": "Ứng Hòa",
    "name_en": "Ung Hoa",
    "full_name": "Huyện Ứng Hòa",
    "full_name_en": "Ung Hoa District",
    "code_name": "ung_hoa",
    "province_id": "01",
    "id": "281"
  },
  {
    "name": "Mỹ Đức",
    "name_en": "My Duc",
    "full_name": "Huyện Mỹ Đức",
    "full_name_en": "My Duc District",
    "code_name": "my_duc",
    "province_id": "01",
    "id": "282"
  },
  {
    "name": "Hải Dương",
    "name_en": "Hai Duong",
    "full_name": "Thành phố Hải Dương",
    "full_name_en": "Hai Duong City",
    "code_name": "hai_duong",
    "province_id": "30",
    "id": "288"
  },
  {
    "name": "Chí Linh",
    "name_en": "Chi Linh",
    "full_name": "Thành phố Chí Linh",
    "full_name_en": "Chi Linh City",
    "code_name": "chi_linh",
    "province_id": "30",
    "id": "290"
  },
  {
    "name": "Nam Sách",
    "name_en": "Nam Sach",
    "full_name": "Huyện Nam Sách",
    "full_name_en": "Nam Sach District",
    "code_name": "nam_sach",
    "province_id": "30",
    "id": "291"
  },
  {
    "name": "Kinh Môn",
    "name_en": "Kinh Mon",
    "full_name": "Thị xã Kinh Môn",
    "full_name_en": "Kinh Mon Town",
    "code_name": "kinh_mon",
    "province_id": "30",
    "id": "292"
  },
  {
    "name": "Kim Thành",
    "name_en": "Kim Thanh",
    "full_name": "Huyện Kim Thành",
    "full_name_en": "Kim Thanh District",
    "code_name": "kim_thanh",
    "province_id": "30",
    "id": "293"
  },
  {
    "name": "Thanh Hà",
    "name_en": "Thanh Ha",
    "full_name": "Huyện Thanh Hà",
    "full_name_en": "Thanh Ha District",
    "code_name": "thanh_ha",
    "province_id": "30",
    "id": "294"
  },
  {
    "name": "Cẩm Giàng",
    "name_en": "Cam Giang",
    "full_name": "Huyện Cẩm Giàng",
    "full_name_en": "Cam Giang District",
    "code_name": "cam_giang",
    "province_id": "30",
    "id": "295"
  },
  {
    "name": "Bình Giang",
    "name_en": "Binh Giang",
    "full_name": "Huyện Bình Giang",
    "full_name_en": "Binh Giang District",
    "code_name": "binh_giang",
    "province_id": "30",
    "id": "296"
  },
  {
    "name": "Gia Lộc",
    "name_en": "Gia Loc",
    "full_name": "Huyện Gia Lộc",
    "full_name_en": "Gia Loc District",
    "code_name": "gia_loc",
    "province_id": "30",
    "id": "297"
  },
  {
    "name": "Tứ Kỳ",
    "name_en": "Tu Ky",
    "full_name": "Huyện Tứ Kỳ",
    "full_name_en": "Tu Ky District",
    "code_name": "tu_ky",
    "province_id": "30",
    "id": "298"
  },
  {
    "name": "Ninh Giang",
    "name_en": "Ninh Giang",
    "full_name": "Huyện Ninh Giang",
    "full_name_en": "Ninh Giang District",
    "code_name": "ninh_giang",
    "province_id": "30",
    "id": "299"
  },
  {
    "name": "Thanh Miện",
    "name_en": "Thanh Mien",
    "full_name": "Huyện Thanh Miện",
    "full_name_en": "Thanh Mien District",
    "code_name": "thanh_mien",
    "province_id": "30",
    "id": "300"
  },
  {
    "name": "Hồng Bàng",
    "name_en": "Hong Bang",
    "full_name": "Quận Hồng Bàng",
    "full_name_en": "Hong Bang District",
    "code_name": "hong_bang",
    "province_id": "31",
    "id": "303"
  },
  {
    "name": "Ngô Quyền",
    "name_en": "Ngo Quyen",
    "full_name": "Quận Ngô Quyền",
    "full_name_en": "Ngo Quyen District",
    "code_name": "ngo_quyen",
    "province_id": "31",
    "id": "304"
  },
  {
    "name": "Lê Chân",
    "name_en": "Le Chan",
    "full_name": "Quận Lê Chân",
    "full_name_en": "Le Chan District",
    "code_name": "le_chan",
    "province_id": "31",
    "id": "305"
  },
  {
    "name": "Hải An",
    "name_en": "Hai An",
    "full_name": "Quận Hải An",
    "full_name_en": "Hai An District",
    "code_name": "hai_an",
    "province_id": "31",
    "id": "306"
  },
  {
    "name": "Kiến An",
    "name_en": "Kien An",
    "full_name": "Quận Kiến An",
    "full_name_en": "Kien An District",
    "code_name": "kien_an",
    "province_id": "31",
    "id": "307"
  },
  {
    "name": "Đồ Sơn",
    "name_en": "Do Son",
    "full_name": "Quận Đồ Sơn",
    "full_name_en": "Do Son District",
    "code_name": "do_son",
    "province_id": "31",
    "id": "308"
  },
  {
    "name": "Dương Kinh",
    "name_en": "Duong Kinh",
    "full_name": "Quận Dương Kinh",
    "full_name_en": "Duong Kinh District",
    "code_name": "duong_kinh",
    "province_id": "31",
    "id": "309"
  },
  {
    "name": "Thuỷ Nguyên",
    "name_en": "Thuy Nguyen",
    "full_name": "Huyện Thuỷ Nguyên",
    "full_name_en": "Thuy Nguyen District",
    "code_name": "thuy_nguyen",
    "province_id": "31",
    "id": "311"
  },
  {
    "name": "An Dương",
    "name_en": "An Duong",
    "full_name": "Huyện An Dương",
    "full_name_en": "An Duong District",
    "code_name": "an_duong",
    "province_id": "31",
    "id": "312"
  },
  {
    "name": "An Lão",
    "name_en": "An Lao",
    "full_name": "Huyện An Lão",
    "full_name_en": "An Lao District",
    "code_name": "an_lao",
    "province_id": "31",
    "id": "313"
  },
  {
    "name": "Kiến Thuỵ",
    "name_en": "Kien Thuy",
    "full_name": "Huyện Kiến Thuỵ",
    "full_name_en": "Kien Thuy District",
    "code_name": "kien_thuy",
    "province_id": "31",
    "id": "314"
  },
  {
    "name": "Tiên Lãng",
    "name_en": "Tien Lang",
    "full_name": "Huyện Tiên Lãng",
    "full_name_en": "Tien Lang District",
    "code_name": "tien_lang",
    "province_id": "31",
    "id": "315"
  },
  {
    "name": "Vĩnh Bảo",
    "name_en": "Vinh Bao",
    "full_name": "Huyện Vĩnh Bảo",
    "full_name_en": "Vinh Bao District",
    "code_name": "vinh_bao",
    "province_id": "31",
    "id": "316"
  },
  {
    "name": "Cát Hải",
    "name_en": "Cat Hai",
    "full_name": "Huyện Cát Hải",
    "full_name_en": "Cat Hai District",
    "code_name": "cat_hai",
    "province_id": "31",
    "id": "317"
  },
  {
    "name": "Hưng Yên",
    "name_en": "Hung Yen",
    "full_name": "Thành phố Hưng Yên",
    "full_name_en": "Hung Yen City",
    "code_name": "hung_yen",
    "province_id": "33",
    "id": "323"
  },
  {
    "name": "Văn Lâm",
    "name_en": "Van Lam",
    "full_name": "Huyện Văn Lâm",
    "full_name_en": "Van Lam District",
    "code_name": "van_lam",
    "province_id": "33",
    "id": "325"
  },
  {
    "name": "Văn Giang",
    "name_en": "Van Giang",
    "full_name": "Huyện Văn Giang",
    "full_name_en": "Van Giang District",
    "code_name": "van_giang",
    "province_id": "33",
    "id": "326"
  },
  {
    "name": "Yên Mỹ",
    "name_en": "Yen My",
    "full_name": "Huyện Yên Mỹ",
    "full_name_en": "Yen My District",
    "code_name": "yen_my",
    "province_id": "33",
    "id": "327"
  },
  {
    "name": "Mỹ Hào",
    "name_en": "My Hao",
    "full_name": "Thị xã Mỹ Hào",
    "full_name_en": "My Hao Town",
    "code_name": "my_hao",
    "province_id": "33",
    "id": "328"
  },
  {
    "name": "Ân Thi",
    "name_en": "An Thi",
    "full_name": "Huyện Ân Thi",
    "full_name_en": "An Thi District",
    "code_name": "an_thi",
    "province_id": "33",
    "id": "329"
  },
  {
    "name": "Khoái Châu",
    "name_en": "Khoai Chau",
    "full_name": "Huyện Khoái Châu",
    "full_name_en": "Khoai Chau District",
    "code_name": "khoai_chau",
    "province_id": "33",
    "id": "330"
  },
  {
    "name": "Kim Động",
    "name_en": "Kim Dong",
    "full_name": "Huyện Kim Động",
    "full_name_en": "Kim Dong District",
    "code_name": "kim_dong",
    "province_id": "33",
    "id": "331"
  },
  {
    "name": "Tiên Lữ",
    "name_en": "Tien Lu",
    "full_name": "Huyện Tiên Lữ",
    "full_name_en": "Tien Lu District",
    "code_name": "tien_lu",
    "province_id": "33",
    "id": "332"
  },
  {
    "name": "Phù Cừ",
    "name_en": "Phu Cu",
    "full_name": "Huyện Phù Cừ",
    "full_name_en": "Phu Cu District",
    "code_name": "phu_cu",
    "province_id": "33",
    "id": "333"
  },
  {
    "name": "Thái Bình",
    "name_en": "Thai Binh",
    "full_name": "Thành phố Thái Bình",
    "full_name_en": "Thai Binh City",
    "code_name": "thai_binh",
    "province_id": "34",
    "id": "336"
  },
  {
    "name": "Quỳnh Phụ",
    "name_en": "Quynh Phu",
    "full_name": "Huyện Quỳnh Phụ",
    "full_name_en": "Quynh Phu District",
    "code_name": "quynh_phu",
    "province_id": "34",
    "id": "338"
  },
  {
    "name": "Hưng Hà",
    "name_en": "Hung Ha",
    "full_name": "Huyện Hưng Hà",
    "full_name_en": "Hung Ha District",
    "code_name": "hung_ha",
    "province_id": "34",
    "id": "339"
  },
  {
    "name": "Đông Hưng",
    "name_en": "Dong Hung",
    "full_name": "Huyện Đông Hưng",
    "full_name_en": "Dong Hung District",
    "code_name": "dong_hung",
    "province_id": "34",
    "id": "340"
  },
  {
    "name": "Thái Thụy",
    "name_en": "Thai Thuy",
    "full_name": "Huyện Thái Thụy",
    "full_name_en": "Thai Thuy District",
    "code_name": "thai_thuy",
    "province_id": "34",
    "id": "341"
  },
  {
    "name": "Tiền Hải",
    "name_en": "Tien Hai",
    "full_name": "Huyện Tiền Hải",
    "full_name_en": "Tien Hai District",
    "code_name": "tien_hai",
    "province_id": "34",
    "id": "342"
  },
  {
    "name": "Kiến Xương",
    "name_en": "Kien Xuong",
    "full_name": "Huyện Kiến Xương",
    "full_name_en": "Kien Xuong District",
    "code_name": "kien_xuong",
    "province_id": "34",
    "id": "343"
  },
  {
    "name": "Vũ Thư",
    "name_en": "Vu Thu",
    "full_name": "Huyện Vũ Thư",
    "full_name_en": "Vu Thu District",
    "code_name": "vu_thu",
    "province_id": "34",
    "id": "344"
  },
  {
    "name": "Phủ Lý",
    "name_en": "Phu Ly",
    "full_name": "Thành phố Phủ Lý",
    "full_name_en": "Phu Ly City",
    "code_name": "phu_ly",
    "province_id": "35",
    "id": "347"
  },
  {
    "name": "Duy Tiên",
    "name_en": "Duy Tien",
    "full_name": "Thị xã Duy Tiên",
    "full_name_en": "Duy Tien Town",
    "code_name": "duy_tien",
    "province_id": "35",
    "id": "349"
  },
  {
    "name": "Kim Bảng",
    "name_en": "Kim Bang",
    "full_name": "Huyện Kim Bảng",
    "full_name_en": "Kim Bang District",
    "code_name": "kim_bang",
    "province_id": "35",
    "id": "350"
  },
  {
    "name": "Thanh Liêm",
    "name_en": "Thanh Liem",
    "full_name": "Huyện Thanh Liêm",
    "full_name_en": "Thanh Liem District",
    "code_name": "thanh_liem",
    "province_id": "35",
    "id": "351"
  },
  {
    "name": "Bình Lục",
    "name_en": "Binh Luc",
    "full_name": "Huyện Bình Lục",
    "full_name_en": "Binh Luc District",
    "code_name": "binh_luc",
    "province_id": "35",
    "id": "352"
  },
  {
    "name": "Lý Nhân",
    "name_en": "Ly Nhan",
    "full_name": "Huyện Lý Nhân",
    "full_name_en": "Ly Nhan District",
    "code_name": "ly_nhan",
    "province_id": "35",
    "id": "353"
  },
  {
    "name": "Nam Định",
    "name_en": "Nam Dinh",
    "full_name": "Thành phố Nam Định",
    "full_name_en": "Nam Dinh City",
    "code_name": "nam_dinh",
    "province_id": "36",
    "id": "356"
  },
  {
    "name": "Vụ Bản",
    "name_en": "Vu Ban",
    "full_name": "Huyện Vụ Bản",
    "full_name_en": "Vu Ban District",
    "code_name": "vu_ban",
    "province_id": "36",
    "id": "359"
  },
  {
    "name": "Ý Yên",
    "name_en": "Y Yen",
    "full_name": "Huyện Ý Yên",
    "full_name_en": "Y Yen District",
    "code_name": "y_yen",
    "province_id": "36",
    "id": "360"
  },
  {
    "name": "Nghĩa Hưng",
    "name_en": "Nghia Hung",
    "full_name": "Huyện Nghĩa Hưng",
    "full_name_en": "Nghia Hung District",
    "code_name": "nghia_hung",
    "province_id": "36",
    "id": "361"
  },
  {
    "name": "Nam Trực",
    "name_en": "Nam Truc",
    "full_name": "Huyện Nam Trực",
    "full_name_en": "Nam Truc District",
    "code_name": "nam_truc",
    "province_id": "36",
    "id": "362"
  },
  {
    "name": "Trực Ninh",
    "name_en": "Truc Ninh",
    "full_name": "Huyện Trực Ninh",
    "full_name_en": "Truc Ninh District",
    "code_name": "truc_ninh",
    "province_id": "36",
    "id": "363"
  },
  {
    "name": "Xuân Trường",
    "name_en": "Xuan Truong",
    "full_name": "Huyện Xuân Trường",
    "full_name_en": "Xuan Truong District",
    "code_name": "xuan_truong",
    "province_id": "36",
    "id": "364"
  },
  {
    "name": "Giao Thủy",
    "name_en": "Giao Thuy",
    "full_name": "Huyện Giao Thủy",
    "full_name_en": "Giao Thuy District",
    "code_name": "giao_thuy",
    "province_id": "36",
    "id": "365"
  },
  {
    "name": "Hải Hậu",
    "name_en": "Hai Hau",
    "full_name": "Huyện Hải Hậu",
    "full_name_en": "Hai Hau District",
    "code_name": "hai_hau",
    "province_id": "36",
    "id": "366"
  },
  {
    "name": "Ninh Bình",
    "name_en": "Ninh Binh",
    "full_name": "Thành phố Ninh Bình",
    "full_name_en": "Ninh Binh City",
    "code_name": "ninh_binh",
    "province_id": "37",
    "id": "369"
  },
  {
    "name": "Tam Điệp",
    "name_en": "Tam Diep",
    "full_name": "Thành phố Tam Điệp",
    "full_name_en": "Tam Diep City",
    "code_name": "tam_diep",
    "province_id": "37",
    "id": "370"
  },
  {
    "name": "Nho Quan",
    "name_en": "Nho Quan",
    "full_name": "Huyện Nho Quan",
    "full_name_en": "Nho Quan District",
    "code_name": "nho_quan",
    "province_id": "37",
    "id": "372"
  },
  {
    "name": "Gia Viễn",
    "name_en": "Gia Vien",
    "full_name": "Huyện Gia Viễn",
    "full_name_en": "Gia Vien District",
    "code_name": "gia_vien",
    "province_id": "37",
    "id": "373"
  },
  {
    "name": "Hoa Lư",
    "name_en": "Hoa Lu",
    "full_name": "Huyện Hoa Lư",
    "full_name_en": "Hoa Lu District",
    "code_name": "hoa_lu",
    "province_id": "37",
    "id": "374"
  },
  {
    "name": "Yên Khánh",
    "name_en": "Yen Khanh",
    "full_name": "Huyện Yên Khánh",
    "full_name_en": "Yen Khanh District",
    "code_name": "yen_khanh",
    "province_id": "37",
    "id": "375"
  },
  {
    "name": "Kim Sơn",
    "name_en": "Kim Son",
    "full_name": "Huyện Kim Sơn",
    "full_name_en": "Kim Son District",
    "code_name": "kim_son",
    "province_id": "37",
    "id": "376"
  },
  {
    "name": "Yên Mô",
    "name_en": "Yen Mo",
    "full_name": "Huyện Yên Mô",
    "full_name_en": "Yen Mo District",
    "code_name": "yen_mo",
    "province_id": "37",
    "id": "377"
  },
  {
    "name": "Thanh Hóa",
    "name_en": "Thanh Hoa",
    "full_name": "Thành phố Thanh Hóa",
    "full_name_en": "Thanh Hoa City",
    "code_name": "thanh_hoa",
    "province_id": "38",
    "id": "380"
  },
  {
    "name": "Bỉm Sơn",
    "name_en": "Bim Son",
    "full_name": "Thị xã Bỉm Sơn",
    "full_name_en": "Bim Son Town",
    "code_name": "bim_son",
    "province_id": "38",
    "id": "381"
  },
  {
    "name": "Sầm Sơn",
    "name_en": "Sam Son",
    "full_name": "Thành phố Sầm Sơn",
    "full_name_en": "Sam Son City",
    "code_name": "sam_son",
    "province_id": "38",
    "id": "382"
  },
  {
    "name": "Mường Lát",
    "name_en": "Muong Lat",
    "full_name": "Huyện Mường Lát",
    "full_name_en": "Muong Lat District",
    "code_name": "muong_lat",
    "province_id": "38",
    "id": "384"
  },
  {
    "name": "Quan Hóa",
    "name_en": "Quan Hoa",
    "full_name": "Huyện Quan Hóa",
    "full_name_en": "Quan Hoa District",
    "code_name": "quan_hoa",
    "province_id": "38",
    "id": "385"
  },
  {
    "name": "Bá Thước",
    "name_en": "Ba Thuoc",
    "full_name": "Huyện Bá Thước",
    "full_name_en": "Ba Thuoc District",
    "code_name": "ba_thuoc",
    "province_id": "38",
    "id": "386"
  },
  {
    "name": "Quan Sơn",
    "name_en": "Quan Son",
    "full_name": "Huyện Quan Sơn",
    "full_name_en": "Quan Son District",
    "code_name": "quan_son",
    "province_id": "38",
    "id": "387"
  },
  {
    "name": "Lang Chánh",
    "name_en": "Lang Chanh",
    "full_name": "Huyện Lang Chánh",
    "full_name_en": "Lang Chanh District",
    "code_name": "lang_chanh",
    "province_id": "38",
    "id": "388"
  },
  {
    "name": "Ngọc Lặc",
    "name_en": "Ngoc Lac",
    "full_name": "Huyện Ngọc Lặc",
    "full_name_en": "Ngoc Lac District",
    "code_name": "ngoc_lac",
    "province_id": "38",
    "id": "389"
  },
  {
    "name": "Cẩm Thủy",
    "name_en": "Cam Thuy",
    "full_name": "Huyện Cẩm Thủy",
    "full_name_en": "Cam Thuy District",
    "code_name": "cam_thuy",
    "province_id": "38",
    "id": "390"
  },
  {
    "name": "Thạch Thành",
    "name_en": "Thach Thanh",
    "full_name": "Huyện Thạch Thành",
    "full_name_en": "Thach Thanh District",
    "code_name": "thach_thanh",
    "province_id": "38",
    "id": "391"
  },
  {
    "name": "Hà Trung",
    "name_en": "Ha Trung",
    "full_name": "Huyện Hà Trung",
    "full_name_en": "Ha Trung District",
    "code_name": "ha_trung",
    "province_id": "38",
    "id": "392"
  },
  {
    "name": "Vĩnh Lộc",
    "name_en": "Vinh Loc",
    "full_name": "Huyện Vĩnh Lộc",
    "full_name_en": "Vinh Loc District",
    "code_name": "vinh_loc",
    "province_id": "38",
    "id": "393"
  },
  {
    "name": "Yên Định",
    "name_en": "Yen Dinh",
    "full_name": "Huyện Yên Định",
    "full_name_en": "Yen Dinh District",
    "code_name": "yen_dinh",
    "province_id": "38",
    "id": "394"
  },
  {
    "name": "Thọ Xuân",
    "name_en": "Tho Xuan",
    "full_name": "Huyện Thọ Xuân",
    "full_name_en": "Tho Xuan District",
    "code_name": "tho_xuan",
    "province_id": "38",
    "id": "395"
  },
  {
    "name": "Thường Xuân",
    "name_en": "Thuong Xuan",
    "full_name": "Huyện Thường Xuân",
    "full_name_en": "Thuong Xuan District",
    "code_name": "thuong_xuan",
    "province_id": "38",
    "id": "396"
  },
  {
    "name": "Triệu Sơn",
    "name_en": "Trieu Son",
    "full_name": "Huyện Triệu Sơn",
    "full_name_en": "Trieu Son District",
    "code_name": "trieu_son",
    "province_id": "38",
    "id": "397"
  },
  {
    "name": "Thiệu Hóa",
    "name_en": "Thieu Hoa",
    "full_name": "Huyện Thiệu Hóa",
    "full_name_en": "Thieu Hoa District",
    "code_name": "thieu_hoa",
    "province_id": "38",
    "id": "398"
  },
  {
    "name": "Hoằng Hóa",
    "name_en": "Hoang Hoa",
    "full_name": "Huyện Hoằng Hóa",
    "full_name_en": "Hoang Hoa District",
    "code_name": "hoang_hoa",
    "province_id": "38",
    "id": "399"
  },
  {
    "name": "Hậu Lộc",
    "name_en": "Hau Loc",
    "full_name": "Huyện Hậu Lộc",
    "full_name_en": "Hau Loc District",
    "code_name": "hau_loc",
    "province_id": "38",
    "id": "400"
  },
  {
    "name": "Nga Sơn",
    "name_en": "Nga Son",
    "full_name": "Huyện Nga Sơn",
    "full_name_en": "Nga Son District",
    "code_name": "nga_son",
    "province_id": "38",
    "id": "401"
  },
  {
    "name": "Như Xuân",
    "name_en": "Nhu Xuan",
    "full_name": "Huyện Như Xuân",
    "full_name_en": "Nhu Xuan District",
    "code_name": "nhu_xuan",
    "province_id": "38",
    "id": "402"
  },
  {
    "name": "Như Thanh",
    "name_en": "Nhu Thanh",
    "full_name": "Huyện Như Thanh",
    "full_name_en": "Nhu Thanh District",
    "code_name": "nhu_thanh",
    "province_id": "38",
    "id": "403"
  },
  {
    "name": "Nông Cống",
    "name_en": "Nong Cong",
    "full_name": "Huyện Nông Cống",
    "full_name_en": "Nong Cong District",
    "code_name": "nong_cong",
    "province_id": "38",
    "id": "404"
  },
  {
    "name": "Đông Sơn",
    "name_en": "Dong Son",
    "full_name": "Huyện Đông Sơn",
    "full_name_en": "Dong Son District",
    "code_name": "dong_son",
    "province_id": "38",
    "id": "405"
  },
  {
    "name": "Quảng Xương",
    "name_en": "Quang Xuong",
    "full_name": "Huyện Quảng Xương",
    "full_name_en": "Quang Xuong District",
    "code_name": "quang_xuong",
    "province_id": "38",
    "id": "406"
  },
  {
    "name": "Nghi Sơn",
    "name_en": "Nghi Son",
    "full_name": "Thị xã Nghi Sơn",
    "full_name_en": "Nghi Son Town",
    "code_name": "nghi_son",
    "province_id": "38",
    "id": "407"
  },
  {
    "name": "Vinh",
    "name_en": "Vinh",
    "full_name": "Thành phố Vinh",
    "full_name_en": "Vinh City",
    "code_name": "vinh",
    "province_id": "40",
    "id": "412"
  },
  {
    "name": "Cửa Lò",
    "name_en": "Cua Lo",
    "full_name": "Thị xã Cửa Lò",
    "full_name_en": "Cua Lo Town",
    "code_name": "cua_lo",
    "province_id": "40",
    "id": "413"
  },
  {
    "name": "Thái Hoà",
    "name_en": "Thai Hoa",
    "full_name": "Thị xã Thái Hoà",
    "full_name_en": "Thai Hoa Town",
    "code_name": "thai_hoa",
    "province_id": "40",
    "id": "414"
  },
  {
    "name": "Quế Phong",
    "name_en": "Que Phong",
    "full_name": "Huyện Quế Phong",
    "full_name_en": "Que Phong District",
    "code_name": "que_phong",
    "province_id": "40",
    "id": "415"
  },
  {
    "name": "Quỳ Châu",
    "name_en": "Quy Chau",
    "full_name": "Huyện Quỳ Châu",
    "full_name_en": "Quy Chau District",
    "code_name": "quy_chau",
    "province_id": "40",
    "id": "416"
  },
  {
    "name": "Kỳ Sơn",
    "name_en": "Ky Son",
    "full_name": "Huyện Kỳ Sơn",
    "full_name_en": "Ky Son District",
    "code_name": "ky_son",
    "province_id": "40",
    "id": "417"
  },
  {
    "name": "Tương Dương",
    "name_en": "Tuong Duong",
    "full_name": "Huyện Tương Dương",
    "full_name_en": "Tuong Duong District",
    "code_name": "tuong_duong",
    "province_id": "40",
    "id": "418"
  },
  {
    "name": "Nghĩa Đàn",
    "name_en": "Nghia Dan",
    "full_name": "Huyện Nghĩa Đàn",
    "full_name_en": "Nghia Dan District",
    "code_name": "nghia_dan",
    "province_id": "40",
    "id": "419"
  },
  {
    "name": "Quỳ Hợp",
    "name_en": "Quy Hop",
    "full_name": "Huyện Quỳ Hợp",
    "full_name_en": "Quy Hop District",
    "code_name": "quy_hop",
    "province_id": "40",
    "id": "420"
  },
  {
    "name": "Quỳnh Lưu",
    "name_en": "Quynh Luu",
    "full_name": "Huyện Quỳnh Lưu",
    "full_name_en": "Quynh Luu District",
    "code_name": "quynh_luu",
    "province_id": "40",
    "id": "421"
  },
  {
    "name": "Con Cuông",
    "name_en": "Con Cuong",
    "full_name": "Huyện Con Cuông",
    "full_name_en": "Con Cuong District",
    "code_name": "con_cuong",
    "province_id": "40",
    "id": "422"
  },
  {
    "name": "Tân Kỳ",
    "name_en": "Tan Ky",
    "full_name": "Huyện Tân Kỳ",
    "full_name_en": "Tan Ky District",
    "code_name": "tan_ky",
    "province_id": "40",
    "id": "423"
  },
  {
    "name": "Anh Sơn",
    "name_en": "Anh Son",
    "full_name": "Huyện Anh Sơn",
    "full_name_en": "Anh Son District",
    "code_name": "anh_son",
    "province_id": "40",
    "id": "424"
  },
  {
    "name": "Diễn Châu",
    "name_en": "Dien Chau",
    "full_name": "Huyện Diễn Châu",
    "full_name_en": "Dien Chau District",
    "code_name": "dien_chau",
    "province_id": "40",
    "id": "425"
  },
  {
    "name": "Yên Thành",
    "name_en": "Yen Thanh",
    "full_name": "Huyện Yên Thành",
    "full_name_en": "Yen Thanh District",
    "code_name": "yen_thanh",
    "province_id": "40",
    "id": "426"
  },
  {
    "name": "Đô Lương",
    "name_en": "Do Luong",
    "full_name": "Huyện Đô Lương",
    "full_name_en": "Do Luong District",
    "code_name": "do_luong",
    "province_id": "40",
    "id": "427"
  },
  {
    "name": "Thanh Chương",
    "name_en": "Thanh Chuong",
    "full_name": "Huyện Thanh Chương",
    "full_name_en": "Thanh Chuong District",
    "code_name": "thanh_chuong",
    "province_id": "40",
    "id": "428"
  },
  {
    "name": "Nghi Lộc",
    "name_en": "Nghi Loc",
    "full_name": "Huyện Nghi Lộc",
    "full_name_en": "Nghi Loc District",
    "code_name": "nghi_loc",
    "province_id": "40",
    "id": "429"
  },
  {
    "name": "Nam Đàn",
    "name_en": "Nam Dan",
    "full_name": "Huyện Nam Đàn",
    "full_name_en": "Nam Dan District",
    "code_name": "nam_dan",
    "province_id": "40",
    "id": "430"
  },
  {
    "name": "Hưng Nguyên",
    "name_en": "Hung Nguyen",
    "full_name": "Huyện Hưng Nguyên",
    "full_name_en": "Hung Nguyen District",
    "code_name": "hung_nguyen",
    "province_id": "40",
    "id": "431"
  },
  {
    "name": "Hoàng Mai",
    "name_en": "Hoang Mai",
    "full_name": "Thị xã Hoàng Mai",
    "full_name_en": "Hoang Mai Town",
    "code_name": "hoang_mai",
    "province_id": "40",
    "id": "432"
  },
  {
    "name": "Hà Tĩnh",
    "name_en": "Ha Tinh",
    "full_name": "Thành phố Hà Tĩnh",
    "full_name_en": "Ha Tinh City",
    "code_name": "ha_tinh",
    "province_id": "42",
    "id": "436"
  },
  {
    "name": "Hồng Lĩnh",
    "name_en": "Hong Linh",
    "full_name": "Thị xã Hồng Lĩnh",
    "full_name_en": "Hong Linh Town",
    "code_name": "hong_linh",
    "province_id": "42",
    "id": "437"
  },
  {
    "name": "Hương Sơn",
    "name_en": "Huong Son",
    "full_name": "Huyện Hương Sơn",
    "full_name_en": "Huong Son District",
    "code_name": "huong_son",
    "province_id": "42",
    "id": "439"
  },
  {
    "name": "Đức Thọ",
    "name_en": "Duc Tho",
    "full_name": "Huyện Đức Thọ",
    "full_name_en": "Duc Tho District",
    "code_name": "duc_tho",
    "province_id": "42",
    "id": "440"
  },
  {
    "name": "Vũ Quang",
    "name_en": "Vu Quang",
    "full_name": "Huyện Vũ Quang",
    "full_name_en": "Vu Quang District",
    "code_name": "vu_quang",
    "province_id": "42",
    "id": "441"
  },
  {
    "name": "Nghi Xuân",
    "name_en": "Nghi Xuan",
    "full_name": "Huyện Nghi Xuân",
    "full_name_en": "Nghi Xuan District",
    "code_name": "nghi_xuan",
    "province_id": "42",
    "id": "442"
  },
  {
    "name": "Can Lộc",
    "name_en": "Can Loc",
    "full_name": "Huyện Can Lộc",
    "full_name_en": "Can Loc District",
    "code_name": "can_loc",
    "province_id": "42",
    "id": "443"
  },
  {
    "name": "Hương Khê",
    "name_en": "Huong Khe",
    "full_name": "Huyện Hương Khê",
    "full_name_en": "Huong Khe District",
    "code_name": "huong_khe",
    "province_id": "42",
    "id": "444"
  },
  {
    "name": "Thạch Hà",
    "name_en": "Thach Ha",
    "full_name": "Huyện Thạch Hà",
    "full_name_en": "Thach Ha District",
    "code_name": "thach_ha",
    "province_id": "42",
    "id": "445"
  },
  {
    "name": "Cẩm Xuyên",
    "name_en": "Cam Xuyen",
    "full_name": "Huyện Cẩm Xuyên",
    "full_name_en": "Cam Xuyen District",
    "code_name": "cam_xuyen",
    "province_id": "42",
    "id": "446"
  },
  {
    "name": "Kỳ Anh",
    "name_en": "Ky Anh",
    "full_name": "Huyện Kỳ Anh",
    "full_name_en": "Ky Anh District",
    "code_name": "ky_anh",
    "province_id": "42",
    "id": "447"
  },
  {
    "name": "Lộc Hà",
    "name_en": "Loc Ha",
    "full_name": "Huyện Lộc Hà",
    "full_name_en": "Loc Ha District",
    "code_name": "loc_ha",
    "province_id": "42",
    "id": "448"
  },
  {
    "name": "Kỳ Anh",
    "name_en": "Ky Anh",
    "full_name": "Thị xã Kỳ Anh",
    "full_name_en": "Ky Anh Town",
    "code_name": "ky_anh",
    "province_id": "42",
    "id": "449"
  },
  {
    "name": "Đồng Hới",
    "name_en": "Dong Hoi",
    "full_name": "Thành phố Đồng Hới",
    "full_name_en": "Dong Hoi City",
    "code_name": "dong_hoi",
    "province_id": "44",
    "id": "450"
  },
  {
    "name": "Minh Hóa",
    "name_en": "Minh Hoa",
    "full_name": "Huyện Minh Hóa",
    "full_name_en": "Minh Hoa District",
    "code_name": "minh_hoa",
    "province_id": "44",
    "id": "452"
  },
  {
    "name": "Tuyên Hóa",
    "name_en": "Tuyen Hoa",
    "full_name": "Huyện Tuyên Hóa",
    "full_name_en": "Tuyen Hoa District",
    "code_name": "tuyen_hoa",
    "province_id": "44",
    "id": "453"
  },
  {
    "name": "Quảng Trạch",
    "name_en": "Quang Trach",
    "full_name": "Huyện Quảng Trạch",
    "full_name_en": "Quang Trach District",
    "code_name": "quang_trach",
    "province_id": "44",
    "id": "454"
  },
  {
    "name": "Bố Trạch",
    "name_en": "Bo Trach",
    "full_name": "Huyện Bố Trạch",
    "full_name_en": "Bo Trach District",
    "code_name": "bo_trach",
    "province_id": "44",
    "id": "455"
  },
  {
    "name": "Quảng Ninh",
    "name_en": "Quang Ninh",
    "full_name": "Huyện Quảng Ninh",
    "full_name_en": "Quang Ninh District",
    "code_name": "quang_ninh",
    "province_id": "44",
    "id": "456"
  },
  {
    "name": "Lệ Thủy",
    "name_en": "Le Thuy",
    "full_name": "Huyện Lệ Thủy",
    "full_name_en": "Le Thuy District",
    "code_name": "le_thuy",
    "province_id": "44",
    "id": "457"
  },
  {
    "name": "Ba Đồn",
    "name_en": "Ba Don",
    "full_name": "Thị xã Ba Đồn",
    "full_name_en": "Ba Don Town",
    "code_name": "ba_don",
    "province_id": "44",
    "id": "458"
  },
  {
    "name": "Đông Hà",
    "name_en": "Dong Ha",
    "full_name": "Thành phố Đông Hà",
    "full_name_en": "Dong Ha City",
    "code_name": "dong_ha",
    "province_id": "45",
    "id": "461"
  },
  {
    "name": "Quảng Trị",
    "name_en": "Quang Tri",
    "full_name": "Thị xã Quảng Trị",
    "full_name_en": "Quang Tri Town",
    "code_name": "quang_tri",
    "province_id": "45",
    "id": "462"
  },
  {
    "name": "Vĩnh Linh",
    "name_en": "Vinh Linh",
    "full_name": "Huyện Vĩnh Linh",
    "full_name_en": "Vinh Linh District",
    "code_name": "vinh_linh",
    "province_id": "45",
    "id": "464"
  },
  {
    "name": "Hướng Hóa",
    "name_en": "Huong Hoa",
    "full_name": "Huyện Hướng Hóa",
    "full_name_en": "Huong Hoa District",
    "code_name": "huong_hoa",
    "province_id": "45",
    "id": "465"
  },
  {
    "name": "Gio Linh",
    "name_en": "Gio Linh",
    "full_name": "Huyện Gio Linh",
    "full_name_en": "Gio Linh District",
    "code_name": "gio_linh",
    "province_id": "45",
    "id": "466"
  },
  {
    "name": "Đa Krông",
    "name_en": "Da Krong",
    "full_name": "Huyện Đa Krông",
    "full_name_en": "Da Krong District",
    "code_name": "da_krong",
    "province_id": "45",
    "id": "467"
  },
  {
    "name": "Cam Lộ",
    "name_en": "Cam Lo",
    "full_name": "Huyện Cam Lộ",
    "full_name_en": "Cam Lo District",
    "code_name": "cam_lo",
    "province_id": "45",
    "id": "468"
  },
  {
    "name": "Triệu Phong",
    "name_en": "Trieu Phong",
    "full_name": "Huyện Triệu Phong",
    "full_name_en": "Trieu Phong District",
    "code_name": "trieu_phong",
    "province_id": "45",
    "id": "469"
  },
  {
    "name": "Hải Lăng",
    "name_en": "Hai Lang",
    "full_name": "Huyện Hải Lăng",
    "full_name_en": "Hai Lang District",
    "code_name": "hai_lang",
    "province_id": "45",
    "id": "470"
  },
  {
    "name": "Huế",
    "name_en": "Hue",
    "full_name": "Thành phố Huế",
    "full_name_en": "Hue City",
    "code_name": "hue",
    "province_id": "46",
    "id": "474"
  },
  {
    "name": "Phong Điền",
    "name_en": "Phong Dien",
    "full_name": "Huyện Phong Điền",
    "full_name_en": "Phong Dien District",
    "code_name": "phong_dien",
    "province_id": "46",
    "id": "476"
  },
  {
    "name": "Quảng Điền",
    "name_en": "Quang Dien",
    "full_name": "Huyện Quảng Điền",
    "full_name_en": "Quang Dien District",
    "code_name": "quang_dien",
    "province_id": "46",
    "id": "477"
  },
  {
    "name": "Phú Vang",
    "name_en": "Phu Vang",
    "full_name": "Huyện Phú Vang",
    "full_name_en": "Phu Vang District",
    "code_name": "phu_vang",
    "province_id": "46",
    "id": "478"
  },
  {
    "name": "Hương Thủy",
    "name_en": "Huong Thuy",
    "full_name": "Thị xã Hương Thủy",
    "full_name_en": "Huong Thuy Town",
    "code_name": "huong_thuy",
    "province_id": "46",
    "id": "479"
  },
  {
    "name": "Hương Trà",
    "name_en": "Huong Tra",
    "full_name": "Thị xã Hương Trà",
    "full_name_en": "Huong Tra Town",
    "code_name": "huong_tra",
    "province_id": "46",
    "id": "480"
  },
  {
    "name": "A Lưới",
    "name_en": "A Luoi",
    "full_name": "Huyện A Lưới",
    "full_name_en": "A Luoi District",
    "code_name": "a_luoi",
    "province_id": "46",
    "id": "481"
  },
  {
    "name": "Phú Lộc",
    "name_en": "Phu Loc",
    "full_name": "Huyện Phú Lộc",
    "full_name_en": "Phu Loc District",
    "code_name": "phu_loc",
    "province_id": "46",
    "id": "482"
  },
  {
    "name": "Nam Đông",
    "name_en": "Nam Dong",
    "full_name": "Huyện Nam Đông",
    "full_name_en": "Nam Dong District",
    "code_name": "nam_dong",
    "province_id": "46",
    "id": "483"
  },
  {
    "name": "Liên Chiểu",
    "name_en": "Lien Chieu",
    "full_name": "Quận Liên Chiểu",
    "full_name_en": "Lien Chieu District",
    "code_name": "lien_chieu",
    "province_id": "48",
    "id": "490"
  },
  {
    "name": "Thanh Khê",
    "name_en": "Thanh Khe",
    "full_name": "Quận Thanh Khê",
    "full_name_en": "Thanh Khe District",
    "code_name": "thanh_khe",
    "province_id": "48",
    "id": "491"
  },
  {
    "name": "Hải Châu",
    "name_en": "Hai Chau",
    "full_name": "Quận Hải Châu",
    "full_name_en": "Hai Chau District",
    "code_name": "hai_chau",
    "province_id": "48",
    "id": "492"
  },
  {
    "name": "Sơn Trà",
    "name_en": "Son Tra",
    "full_name": "Quận Sơn Trà",
    "full_name_en": "Son Tra District",
    "code_name": "son_tra",
    "province_id": "48",
    "id": "493"
  },
  {
    "name": "Ngũ Hành Sơn",
    "name_en": "Ngu Hanh Son",
    "full_name": "Quận Ngũ Hành Sơn",
    "full_name_en": "Ngu Hanh Son District",
    "code_name": "ngu_hanh_son",
    "province_id": "48",
    "id": "494"
  },
  {
    "name": "Cẩm Lệ",
    "name_en": "Cam Le",
    "full_name": "Quận Cẩm Lệ",
    "full_name_en": "Cam Le District",
    "code_name": "cam_le",
    "province_id": "48",
    "id": "495"
  },
  {
    "name": "Hòa Vang",
    "name_en": "Hoa Vang",
    "full_name": "Huyện Hòa Vang",
    "full_name_en": "Hoa Vang District",
    "code_name": "hoa_vang",
    "province_id": "48",
    "id": "497"
  },
  {
    "name": "Tam Kỳ",
    "name_en": "Tam Ky",
    "full_name": "Thành phố Tam Kỳ",
    "full_name_en": "Tam Ky City",
    "code_name": "tam_ky",
    "province_id": "49",
    "id": "502"
  },
  {
    "name": "Hội An",
    "name_en": "Hoi An",
    "full_name": "Thành phố Hội An",
    "full_name_en": "Hoi An City",
    "code_name": "hoi_an",
    "province_id": "49",
    "id": "503"
  },
  {
    "name": "Tây Giang",
    "name_en": "Tay Giang",
    "full_name": "Huyện Tây Giang",
    "full_name_en": "Tay Giang District",
    "code_name": "tay_giang",
    "province_id": "49",
    "id": "504"
  },
  {
    "name": "Đông Giang",
    "name_en": "Dong Giang",
    "full_name": "Huyện Đông Giang",
    "full_name_en": "Dong Giang District",
    "code_name": "dong_giang",
    "province_id": "49",
    "id": "505"
  },
  {
    "name": "Đại Lộc",
    "name_en": "Dai Loc",
    "full_name": "Huyện Đại Lộc",
    "full_name_en": "Dai Loc District",
    "code_name": "dai_loc",
    "province_id": "49",
    "id": "506"
  },
  {
    "name": "Điện Bàn",
    "name_en": "Dien Ban",
    "full_name": "Thị xã Điện Bàn",
    "full_name_en": "Dien Ban Town",
    "code_name": "dien_ban",
    "province_id": "49",
    "id": "507"
  },
  {
    "name": "Duy Xuyên",
    "name_en": "Duy Xuyen",
    "full_name": "Huyện Duy Xuyên",
    "full_name_en": "Duy Xuyen District",
    "code_name": "duy_xuyen",
    "province_id": "49",
    "id": "508"
  },
  {
    "name": "Quế Sơn",
    "name_en": "Que Son",
    "full_name": "Huyện Quế Sơn",
    "full_name_en": "Que Son District",
    "code_name": "que_son",
    "province_id": "49",
    "id": "509"
  },
  {
    "name": "Nam Giang",
    "name_en": "Nam Giang",
    "full_name": "Huyện Nam Giang",
    "full_name_en": "Nam Giang District",
    "code_name": "nam_giang",
    "province_id": "49",
    "id": "510"
  },
  {
    "name": "Phước Sơn",
    "name_en": "Phuoc Son",
    "full_name": "Huyện Phước Sơn",
    "full_name_en": "Phuoc Son District",
    "code_name": "phuoc_son",
    "province_id": "49",
    "id": "511"
  },
  {
    "name": "Hiệp Đức",
    "name_en": "Hiep Duc",
    "full_name": "Huyện Hiệp Đức",
    "full_name_en": "Hiep Duc District",
    "code_name": "hiep_duc",
    "province_id": "49",
    "id": "512"
  },
  {
    "name": "Thăng Bình",
    "name_en": "Thang Binh",
    "full_name": "Huyện Thăng Bình",
    "full_name_en": "Thang Binh District",
    "code_name": "thang_binh",
    "province_id": "49",
    "id": "513"
  },
  {
    "name": "Tiên Phước",
    "name_en": "Tien Phuoc",
    "full_name": "Huyện Tiên Phước",
    "full_name_en": "Tien Phuoc District",
    "code_name": "tien_phuoc",
    "province_id": "49",
    "id": "514"
  },
  {
    "name": "Bắc Trà My",
    "name_en": "Bac Tra My",
    "full_name": "Huyện Bắc Trà My",
    "full_name_en": "Bac Tra My District",
    "code_name": "bac_tra_my",
    "province_id": "49",
    "id": "515"
  },
  {
    "name": "Nam Trà My",
    "name_en": "Nam Tra My",
    "full_name": "Huyện Nam Trà My",
    "full_name_en": "Nam Tra My District",
    "code_name": "nam_tra_my",
    "province_id": "49",
    "id": "516"
  },
  {
    "name": "Núi Thành",
    "name_en": "Nui Thanh",
    "full_name": "Huyện Núi Thành",
    "full_name_en": "Nui Thanh District",
    "code_name": "nui_thanh",
    "province_id": "49",
    "id": "517"
  },
  {
    "name": "Phú Ninh",
    "name_en": "Phu Ninh",
    "full_name": "Huyện Phú Ninh",
    "full_name_en": "Phu Ninh District",
    "code_name": "phu_ninh",
    "province_id": "49",
    "id": "518"
  },
  {
    "name": "Nông Sơn",
    "name_en": "Nong Son",
    "full_name": "Huyện Nông Sơn",
    "full_name_en": "Nong Son District",
    "code_name": "nong_son",
    "province_id": "49",
    "id": "519"
  },
  {
    "name": "Quảng Ngãi",
    "name_en": "Quang Ngai",
    "full_name": "Thành phố Quảng Ngãi",
    "full_name_en": "Quang Ngai City",
    "code_name": "quang_ngai",
    "province_id": "51",
    "id": "522"
  },
  {
    "name": "Bình Sơn",
    "name_en": "Binh Son",
    "full_name": "Huyện Bình Sơn",
    "full_name_en": "Binh Son District",
    "code_name": "binh_son",
    "province_id": "51",
    "id": "524"
  },
  {
    "name": "Trà Bồng",
    "name_en": "Tra Bong",
    "full_name": "Huyện Trà Bồng",
    "full_name_en": "Tra Bong District",
    "code_name": "tra_bong",
    "province_id": "51",
    "id": "525"
  },
  {
    "name": "Sơn Tịnh",
    "name_en": "Son Tinh",
    "full_name": "Huyện Sơn Tịnh",
    "full_name_en": "Son Tinh District",
    "code_name": "son_tinh",
    "province_id": "51",
    "id": "527"
  },
  {
    "name": "Tư Nghĩa",
    "name_en": "Tu Nghia",
    "full_name": "Huyện Tư Nghĩa",
    "full_name_en": "Tu Nghia District",
    "code_name": "tu_nghia",
    "province_id": "51",
    "id": "528"
  },
  {
    "name": "Sơn Hà",
    "name_en": "Son Ha",
    "full_name": "Huyện Sơn Hà",
    "full_name_en": "Son Ha District",
    "code_name": "son_ha",
    "province_id": "51",
    "id": "529"
  },
  {
    "name": "Sơn Tây",
    "name_en": "Son Tay",
    "full_name": "Huyện Sơn Tây",
    "full_name_en": "Son Tay District",
    "code_name": "son_tay",
    "province_id": "51",
    "id": "530"
  },
  {
    "name": "Minh Long",
    "name_en": "Minh Long",
    "full_name": "Huyện Minh Long",
    "full_name_en": "Minh Long District",
    "code_name": "minh_long",
    "province_id": "51",
    "id": "531"
  },
  {
    "name": "Nghĩa Hành",
    "name_en": "Nghia Hanh",
    "full_name": "Huyện Nghĩa Hành",
    "full_name_en": "Nghia Hanh District",
    "code_name": "nghia_hanh",
    "province_id": "51",
    "id": "532"
  },
  {
    "name": "Mộ Đức",
    "name_en": "Mo Duc",
    "full_name": "Huyện Mộ Đức",
    "full_name_en": "Mo Duc District",
    "code_name": "mo_duc",
    "province_id": "51",
    "id": "533"
  },
  {
    "name": "Đức Phổ",
    "name_en": "Duc Pho",
    "full_name": "Thị xã Đức Phổ",
    "full_name_en": "Duc Pho Town",
    "code_name": "duc_pho",
    "province_id": "51",
    "id": "534"
  },
  {
    "name": "Ba Tơ",
    "name_en": "Ba To",
    "full_name": "Huyện Ba Tơ",
    "full_name_en": "Ba To District",
    "code_name": "ba_to",
    "province_id": "51",
    "id": "535"
  },
  {
    "name": "Quy Nhơn",
    "name_en": "Quy Nhon",
    "full_name": "Thành phố Quy Nhơn",
    "full_name_en": "Quy Nhon City",
    "code_name": "quy_nhon",
    "province_id": "52",
    "id": "540"
  },
  {
    "name": "An Lão",
    "name_en": "An Lao",
    "full_name": "Huyện An Lão",
    "full_name_en": "An Lao District",
    "code_name": "an_lao",
    "province_id": "52",
    "id": "542"
  },
  {
    "name": "Hoài Nhơn",
    "name_en": "Hoai Nhon",
    "full_name": "Thị xã Hoài Nhơn",
    "full_name_en": "Hoai Nhon Town",
    "code_name": "hoai_nhon",
    "province_id": "52",
    "id": "543"
  },
  {
    "name": "Hoài Ân",
    "name_en": "Hoai An",
    "full_name": "Huyện Hoài Ân",
    "full_name_en": "Hoai An District",
    "code_name": "hoai_an",
    "province_id": "52",
    "id": "544"
  },
  {
    "name": "Phù Mỹ",
    "name_en": "Phu My",
    "full_name": "Huyện Phù Mỹ",
    "full_name_en": "Phu My District",
    "code_name": "phu_my",
    "province_id": "52",
    "id": "545"
  },
  {
    "name": "Vĩnh Thạnh",
    "name_en": "Vinh Thanh",
    "full_name": "Huyện Vĩnh Thạnh",
    "full_name_en": "Vinh Thanh District",
    "code_name": "vinh_thanh",
    "province_id": "52",
    "id": "546"
  },
  {
    "name": "Tây Sơn",
    "name_en": "Tay Son",
    "full_name": "Huyện Tây Sơn",
    "full_name_en": "Tay Son District",
    "code_name": "tay_son",
    "province_id": "52",
    "id": "547"
  },
  {
    "name": "Phù Cát",
    "name_en": "Phu Cat",
    "full_name": "Huyện Phù Cát",
    "full_name_en": "Phu Cat District",
    "code_name": "phu_cat",
    "province_id": "52",
    "id": "548"
  },
  {
    "name": "An Nhơn",
    "name_en": "An Nhon",
    "full_name": "Thị xã An Nhơn",
    "full_name_en": "An Nhon Town",
    "code_name": "an_nhon",
    "province_id": "52",
    "id": "549"
  },
  {
    "name": "Tuy Phước",
    "name_en": "Tuy Phuoc",
    "full_name": "Huyện Tuy Phước",
    "full_name_en": "Tuy Phuoc District",
    "code_name": "tuy_phuoc",
    "province_id": "52",
    "id": "550"
  },
  {
    "name": "Vân Canh",
    "name_en": "Van Canh",
    "full_name": "Huyện Vân Canh",
    "full_name_en": "Van Canh District",
    "code_name": "van_canh",
    "province_id": "52",
    "id": "551"
  },
  {
    "name": "Tuy Hoà",
    "name_en": "Tuy Hoa",
    "full_name": "Thành phố Tuy Hoà",
    "full_name_en": "Tuy Hoa City",
    "code_name": "tuy_hoa",
    "province_id": "54",
    "id": "555"
  },
  {
    "name": "Sông Cầu",
    "name_en": "Song Cau",
    "full_name": "Thị xã Sông Cầu",
    "full_name_en": "Song Cau Town",
    "code_name": "song_cau",
    "province_id": "54",
    "id": "557"
  },
  {
    "name": "Đồng Xuân",
    "name_en": "Dong Xuan",
    "full_name": "Huyện Đồng Xuân",
    "full_name_en": "Dong Xuan District",
    "code_name": "dong_xuan",
    "province_id": "54",
    "id": "558"
  },
  {
    "name": "Tuy An",
    "name_en": "Tuy An",
    "full_name": "Huyện Tuy An",
    "full_name_en": "Tuy An District",
    "code_name": "tuy_an",
    "province_id": "54",
    "id": "559"
  },
  {
    "name": "Sơn Hòa",
    "name_en": "Son Hoa",
    "full_name": "Huyện Sơn Hòa",
    "full_name_en": "Son Hoa District",
    "code_name": "son_hoa",
    "province_id": "54",
    "id": "560"
  },
  {
    "name": "Sông Hinh",
    "name_en": "Song Hinh",
    "full_name": "Huyện Sông Hinh",
    "full_name_en": "Song Hinh District",
    "code_name": "song_hinh",
    "province_id": "54",
    "id": "561"
  },
  {
    "name": "Tây Hoà",
    "name_en": "Tay Hoa",
    "full_name": "Huyện Tây Hoà",
    "full_name_en": "Tay Hoa District",
    "code_name": "tay_hoa",
    "province_id": "54",
    "id": "562"
  },
  {
    "name": "Phú Hoà",
    "name_en": "Phu Hoa",
    "full_name": "Huyện Phú Hoà",
    "full_name_en": "Phu Hoa District",
    "code_name": "phu_hoa",
    "province_id": "54",
    "id": "563"
  },
  {
    "name": "Đông Hòa",
    "name_en": "Dong Hoa",
    "full_name": "Thị xã Đông Hòa",
    "full_name_en": "Dong Hoa Town",
    "code_name": "dong_hoa",
    "province_id": "54",
    "id": "564"
  },
  {
    "name": "Nha Trang",
    "name_en": "Nha Trang",
    "full_name": "Thành phố Nha Trang",
    "full_name_en": "Nha Trang City",
    "code_name": "nha_trang",
    "province_id": "56",
    "id": "568"
  },
  {
    "name": "Cam Ranh",
    "name_en": "Cam Ranh",
    "full_name": "Thành phố Cam Ranh",
    "full_name_en": "Cam Ranh City",
    "code_name": "cam_ranh",
    "province_id": "56",
    "id": "569"
  },
  {
    "name": "Cam Lâm",
    "name_en": "Cam Lam",
    "full_name": "Huyện Cam Lâm",
    "full_name_en": "Cam Lam District",
    "code_name": "cam_lam",
    "province_id": "56",
    "id": "570"
  },
  {
    "name": "Vạn Ninh",
    "name_en": "Van Ninh",
    "full_name": "Huyện Vạn Ninh",
    "full_name_en": "Van Ninh District",
    "code_name": "van_ninh",
    "province_id": "56",
    "id": "571"
  },
  {
    "name": "Ninh Hòa",
    "name_en": "Ninh Hoa",
    "full_name": "Thị xã Ninh Hòa",
    "full_name_en": "Ninh Hoa Town",
    "code_name": "ninh_hoa",
    "province_id": "56",
    "id": "572"
  },
  {
    "name": "Khánh Vĩnh",
    "name_en": "Khanh Vinh",
    "full_name": "Huyện Khánh Vĩnh",
    "full_name_en": "Khanh Vinh District",
    "code_name": "khanh_vinh",
    "province_id": "56",
    "id": "573"
  },
  {
    "name": "Diên Khánh",
    "name_en": "Dien Khanh",
    "full_name": "Huyện Diên Khánh",
    "full_name_en": "Dien Khanh District",
    "code_name": "dien_khanh",
    "province_id": "56",
    "id": "574"
  },
  {
    "name": "Khánh Sơn",
    "name_en": "Khanh Son",
    "full_name": "Huyện Khánh Sơn",
    "full_name_en": "Khanh Son District",
    "code_name": "khanh_son",
    "province_id": "56",
    "id": "575"
  },
  {
    "name": "Trường Sa",
    "name_en": "Truong Sa",
    "full_name": "Huyện Trường Sa",
    "full_name_en": "Truong Sa District",
    "code_name": "truong_sa",
    "province_id": "56",
    "id": "576"
  },
  {
    "name": "Phan Rang-Tháp Chàm",
    "name_en": "Phan Rang-Thap Cham",
    "full_name": "Thành phố Phan Rang-Tháp Chàm",
    "full_name_en": "Phan Rang-Thap Cham City",
    "code_name": "phan_rang-thap_cham",
    "province_id": "58",
    "id": "582"
  },
  {
    "name": "Bác Ái",
    "name_en": "Bac Ai",
    "full_name": "Huyện Bác Ái",
    "full_name_en": "Bac Ai District",
    "code_name": "bac_ai",
    "province_id": "58",
    "id": "584"
  },
  {
    "name": "Ninh Sơn",
    "name_en": "Ninh Son",
    "full_name": "Huyện Ninh Sơn",
    "full_name_en": "Ninh Son District",
    "code_name": "ninh_son",
    "province_id": "58",
    "id": "585"
  },
  {
    "name": "Ninh Hải",
    "name_en": "Ninh Hai",
    "full_name": "Huyện Ninh Hải",
    "full_name_en": "Ninh Hai District",
    "code_name": "ninh_hai",
    "province_id": "58",
    "id": "586"
  },
  {
    "name": "Ninh Phước",
    "name_en": "Ninh Phuoc",
    "full_name": "Huyện Ninh Phước",
    "full_name_en": "Ninh Phuoc District",
    "code_name": "ninh_phuoc",
    "province_id": "58",
    "id": "587"
  },
  {
    "name": "Thuận Bắc",
    "name_en": "Thuan Bac",
    "full_name": "Huyện Thuận Bắc",
    "full_name_en": "Thuan Bac District",
    "code_name": "thuan_bac",
    "province_id": "58",
    "id": "588"
  },
  {
    "name": "Thuận Nam",
    "name_en": "Thuan Nam",
    "full_name": "Huyện Thuận Nam",
    "full_name_en": "Thuan Nam District",
    "code_name": "thuan_nam",
    "province_id": "58",
    "id": "589"
  },
  {
    "name": "Phan Thiết",
    "name_en": "Phan Thiet",
    "full_name": "Thành phố Phan Thiết",
    "full_name_en": "Phan Thiet City",
    "code_name": "phan_thiet",
    "province_id": "60",
    "id": "593"
  },
  {
    "name": "La Gi",
    "name_en": "La Gi",
    "full_name": "Thị xã La Gi",
    "full_name_en": "La Gi Town",
    "code_name": "la_gi",
    "province_id": "60",
    "id": "594"
  },
  {
    "name": "Tuy Phong",
    "name_en": "Tuy Phong",
    "full_name": "Huyện Tuy Phong",
    "full_name_en": "Tuy Phong District",
    "code_name": "tuy_phong",
    "province_id": "60",
    "id": "595"
  },
  {
    "name": "Bắc Bình",
    "name_en": "Bac Binh",
    "full_name": "Huyện Bắc Bình",
    "full_name_en": "Bac Binh District",
    "code_name": "bac_binh",
    "province_id": "60",
    "id": "596"
  },
  {
    "name": "Hàm Thuận Bắc",
    "name_en": "Ham Thuan Bac",
    "full_name": "Huyện Hàm Thuận Bắc",
    "full_name_en": "Ham Thuan Bac District",
    "code_name": "ham_thuan_bac",
    "province_id": "60",
    "id": "597"
  },
  {
    "name": "Hàm Thuận Nam",
    "name_en": "Ham Thuan Nam",
    "full_name": "Huyện Hàm Thuận Nam",
    "full_name_en": "Ham Thuan Nam District",
    "code_name": "ham_thuan_nam",
    "province_id": "60",
    "id": "598"
  },
  {
    "name": "Tánh Linh",
    "name_en": "Tanh Linh",
    "full_name": "Huyện Tánh Linh",
    "full_name_en": "Tanh Linh District",
    "code_name": "tanh_linh",
    "province_id": "60",
    "id": "599"
  },
  {
    "name": "Đức Linh",
    "name_en": "Duc Linh",
    "full_name": "Huyện Đức Linh",
    "full_name_en": "Duc Linh District",
    "code_name": "duc_linh",
    "province_id": "60",
    "id": "600"
  },
  {
    "name": "Hàm Tân",
    "name_en": "Ham Tan",
    "full_name": "Huyện Hàm Tân",
    "full_name_en": "Ham Tan District",
    "code_name": "ham_tan",
    "province_id": "60",
    "id": "601"
  },
  {
    "name": "Phú Quí",
    "name_en": "Phu Qui",
    "full_name": "Huyện Phú Quí",
    "full_name_en": "Phu Qui District",
    "code_name": "phu_qui",
    "province_id": "60",
    "id": "602"
  },
  {
    "name": "Kon Tum",
    "name_en": "Kon Tum",
    "full_name": "Thành phố Kon Tum",
    "full_name_en": "Kon Tum City",
    "code_name": "kon_tum",
    "province_id": "62",
    "id": "608"
  },
  {
    "name": "Đắk Glei",
    "name_en": "Dak Glei",
    "full_name": "Huyện Đắk Glei",
    "full_name_en": "Dak Glei District",
    "code_name": "dak_glei",
    "province_id": "62",
    "id": "610"
  },
  {
    "name": "Ngọc Hồi",
    "name_en": "Ngoc Hoi",
    "full_name": "Huyện Ngọc Hồi",
    "full_name_en": "Ngoc Hoi District",
    "code_name": "ngoc_hoi",
    "province_id": "62",
    "id": "611"
  },
  {
    "name": "Đắk Tô",
    "name_en": "Dak To",
    "full_name": "Huyện Đắk Tô",
    "full_name_en": "Dak To District",
    "code_name": "dak_to",
    "province_id": "62",
    "id": "612"
  },
  {
    "name": "Kon Plông",
    "name_en": "Kon Plong",
    "full_name": "Huyện Kon Plông",
    "full_name_en": "Kon Plong District",
    "code_name": "kon_plong",
    "province_id": "62",
    "id": "613"
  },
  {
    "name": "Kon Rẫy",
    "name_en": "Kon Ray",
    "full_name": "Huyện Kon Rẫy",
    "full_name_en": "Kon Ray District",
    "code_name": "kon_ray",
    "province_id": "62",
    "id": "614"
  },
  {
    "name": "Đắk Hà",
    "name_en": "Dak Ha",
    "full_name": "Huyện Đắk Hà",
    "full_name_en": "Dak Ha District",
    "code_name": "dak_ha",
    "province_id": "62",
    "id": "615"
  },
  {
    "name": "Sa Thầy",
    "name_en": "Sa Thay",
    "full_name": "Huyện Sa Thầy",
    "full_name_en": "Sa Thay District",
    "code_name": "sa_thay",
    "province_id": "62",
    "id": "616"
  },
  {
    "name": "Tu Mơ Rông",
    "name_en": "Tu Mo Rong",
    "full_name": "Huyện Tu Mơ Rông",
    "full_name_en": "Tu Mo Rong District",
    "code_name": "tu_mo_rong",
    "province_id": "62",
    "id": "617"
  },
  {
    "name": "Ia H' Drai",
    "name_en": "Ia H' Drai",
    "full_name": "Huyện Ia H' Drai",
    "full_name_en": "Ia H' Drai District",
    "code_name": "ia_h_drai",
    "province_id": "62",
    "id": "618"
  },
  {
    "name": "Pleiku",
    "name_en": "Pleiku",
    "full_name": "Thành phố Pleiku",
    "full_name_en": "Pleiku City",
    "code_name": "pleiku",
    "province_id": "64",
    "id": "622"
  },
  {
    "name": "An Khê",
    "name_en": "An Khe",
    "full_name": "Thị xã An Khê",
    "full_name_en": "An Khe Town",
    "code_name": "an_khe",
    "province_id": "64",
    "id": "623"
  },
  {
    "name": "Ayun Pa",
    "name_en": "Ayun Pa",
    "full_name": "Thị xã Ayun Pa",
    "full_name_en": "Ayun Pa Town",
    "code_name": "ayun_pa",
    "province_id": "64",
    "id": "624"
  },
  {
    "name": "KBang",
    "name_en": "KBang",
    "full_name": "Huyện KBang",
    "full_name_en": "KBang District",
    "code_name": "kbang",
    "province_id": "64",
    "id": "625"
  },
  {
    "name": "Đăk Đoa",
    "name_en": "Dak Doa",
    "full_name": "Huyện Đăk Đoa",
    "full_name_en": "Dak Doa District",
    "code_name": "dak_doa",
    "province_id": "64",
    "id": "626"
  },
  {
    "name": "Chư Păh",
    "name_en": "Chu Pah",
    "full_name": "Huyện Chư Păh",
    "full_name_en": "Chu Pah District",
    "code_name": "chu_pah",
    "province_id": "64",
    "id": "627"
  },
  {
    "name": "Ia Grai",
    "name_en": "Ia Grai",
    "full_name": "Huyện Ia Grai",
    "full_name_en": "Ia Grai District",
    "code_name": "ia_grai",
    "province_id": "64",
    "id": "628"
  },
  {
    "name": "Mang Yang",
    "name_en": "Mang Yang",
    "full_name": "Huyện Mang Yang",
    "full_name_en": "Mang Yang District",
    "code_name": "mang_yang",
    "province_id": "64",
    "id": "629"
  },
  {
    "name": "Kông Chro",
    "name_en": "Kong Chro",
    "full_name": "Huyện Kông Chro",
    "full_name_en": "Kong Chro District",
    "code_name": "kong_chro",
    "province_id": "64",
    "id": "630"
  },
  {
    "name": "Đức Cơ",
    "name_en": "Duc Co",
    "full_name": "Huyện Đức Cơ",
    "full_name_en": "Duc Co District",
    "code_name": "duc_co",
    "province_id": "64",
    "id": "631"
  },
  {
    "name": "Chư Prông",
    "name_en": "Chu Prong",
    "full_name": "Huyện Chư Prông",
    "full_name_en": "Chu Prong District",
    "code_name": "chu_prong",
    "province_id": "64",
    "id": "632"
  },
  {
    "name": "Chư Sê",
    "name_en": "Chu Se",
    "full_name": "Huyện Chư Sê",
    "full_name_en": "Chu Se District",
    "code_name": "chu_se",
    "province_id": "64",
    "id": "633"
  },
  {
    "name": "Đăk Pơ",
    "name_en": "Dak Po",
    "full_name": "Huyện Đăk Pơ",
    "full_name_en": "Dak Po District",
    "code_name": "dak_po",
    "province_id": "64",
    "id": "634"
  },
  {
    "name": "Ia Pa",
    "name_en": "Ia Pa",
    "full_name": "Huyện Ia Pa",
    "full_name_en": "Ia Pa District",
    "code_name": "ia_pa",
    "province_id": "64",
    "id": "635"
  },
  {
    "name": "Krông Pa",
    "name_en": "Krong Pa",
    "full_name": "Huyện Krông Pa",
    "full_name_en": "Krong Pa District",
    "code_name": "krong_pa",
    "province_id": "64",
    "id": "637"
  },
  {
    "name": "Phú Thiện",
    "name_en": "Phu Thien",
    "full_name": "Huyện Phú Thiện",
    "full_name_en": "Phu Thien District",
    "code_name": "phu_thien",
    "province_id": "64",
    "id": "638"
  },
  {
    "name": "Chư Pưh",
    "name_en": "Chu Puh",
    "full_name": "Huyện Chư Pưh",
    "full_name_en": "Chu Puh District",
    "code_name": "chu_puh",
    "province_id": "64",
    "id": "639"
  },
  {
    "name": "Buôn Ma Thuột",
    "name_en": "Buon Ma Thuot",
    "full_name": "Thành phố Buôn Ma Thuột",
    "full_name_en": "Buon Ma Thuot City",
    "code_name": "buon_ma_thuot",
    "province_id": "66",
    "id": "643"
  },
  {
    "name": "Buôn Hồ",
    "name_en": "Buon Ho",
    "full_name": "Thị xã Buôn Hồ",
    "full_name_en": "Buon Ho Town",
    "code_name": "buon_ho",
    "province_id": "66",
    "id": "644"
  },
  {
    "name": "Ea H'leo",
    "name_en": "Ea H'leo",
    "full_name": "Huyện Ea H'leo",
    "full_name_en": "Ea H'leo District",
    "code_name": "ea_hleo",
    "province_id": "66",
    "id": "645"
  },
  {
    "name": "Ea Súp",
    "name_en": "Ea Sup",
    "full_name": "Huyện Ea Súp",
    "full_name_en": "Ea Sup District",
    "code_name": "ea_sup",
    "province_id": "66",
    "id": "646"
  },
  {
    "name": "Buôn Đôn",
    "name_en": "Buon Don",
    "full_name": "Huyện Buôn Đôn",
    "full_name_en": "Buon Don District",
    "code_name": "buon_don",
    "province_id": "66",
    "id": "647"
  },
  {
    "name": "Cư M'gar",
    "name_en": "Cu M'gar",
    "full_name": "Huyện Cư M'gar",
    "full_name_en": "Cu M'gar District",
    "code_name": "cu_mgar",
    "province_id": "66",
    "id": "648"
  },
  {
    "name": "Krông Búk",
    "name_en": "Krong Buk",
    "full_name": "Huyện Krông Búk",
    "full_name_en": "Krong Buk District",
    "code_name": "krong_buk",
    "province_id": "66",
    "id": "649"
  },
  {
    "name": "Krông Năng",
    "name_en": "Krong Nang",
    "full_name": "Huyện Krông Năng",
    "full_name_en": "Krong Nang District",
    "code_name": "krong_nang",
    "province_id": "66",
    "id": "650"
  },
  {
    "name": "Ea Kar",
    "name_en": "Ea Kar",
    "full_name": "Huyện Ea Kar",
    "full_name_en": "Ea Kar District",
    "code_name": "ea_kar",
    "province_id": "66",
    "id": "651"
  },
  {
    "name": "M'Đrắk",
    "name_en": "M'Drak",
    "full_name": "Huyện M'Đrắk",
    "full_name_en": "M'Drak District",
    "code_name": "mdrak",
    "province_id": "66",
    "id": "652"
  },
  {
    "name": "Krông Bông",
    "name_en": "Krong Bong",
    "full_name": "Huyện Krông Bông",
    "full_name_en": "Krong Bong District",
    "code_name": "krong_bong",
    "province_id": "66",
    "id": "653"
  },
  {
    "name": "Krông Pắc",
    "name_en": "Krong Pac",
    "full_name": "Huyện Krông Pắc",
    "full_name_en": "Krong Pac District",
    "code_name": "krong_pac",
    "province_id": "66",
    "id": "654"
  },
  {
    "name": "Krông A Na",
    "name_en": "Krong A Na",
    "full_name": "Huyện Krông A Na",
    "full_name_en": "Krong A Na District",
    "code_name": "krong_a_na",
    "province_id": "66",
    "id": "655"
  },
  {
    "name": "Lắk",
    "name_en": "Lak",
    "full_name": "Huyện Lắk",
    "full_name_en": "Lak District",
    "code_name": "lak",
    "province_id": "66",
    "id": "656"
  },
  {
    "name": "Cư Kuin",
    "name_en": "Cu Kuin",
    "full_name": "Huyện Cư Kuin",
    "full_name_en": "Cu Kuin District",
    "code_name": "cu_kuin",
    "province_id": "66",
    "id": "657"
  },
  {
    "name": "Gia Nghĩa",
    "name_en": "Gia Nghia",
    "full_name": "Thành phố Gia Nghĩa",
    "full_name_en": "Gia Nghia City",
    "code_name": "gia_nghia",
    "province_id": "67",
    "id": "660"
  },
  {
    "name": "Đăk Glong",
    "name_en": "Dak Glong",
    "full_name": "Huyện Đăk Glong",
    "full_name_en": "Dak Glong District",
    "code_name": "dak_glong",
    "province_id": "67",
    "id": "661"
  },
  {
    "name": "Cư Jút",
    "name_en": "Cu Jut",
    "full_name": "Huyện Cư Jút",
    "full_name_en": "Cu Jut District",
    "code_name": "cu_jut",
    "province_id": "67",
    "id": "662"
  },
  {
    "name": "Đắk Mil",
    "name_en": "Dak Mil",
    "full_name": "Huyện Đắk Mil",
    "full_name_en": "Dak Mil District",
    "code_name": "dak_mil",
    "province_id": "67",
    "id": "663"
  },
  {
    "name": "Krông Nô",
    "name_en": "Krong No",
    "full_name": "Huyện Krông Nô",
    "full_name_en": "Krong No District",
    "code_name": "krong_no",
    "province_id": "67",
    "id": "664"
  },
  {
    "name": "Đắk Song",
    "name_en": "Dak Song",
    "full_name": "Huyện Đắk Song",
    "full_name_en": "Dak Song District",
    "code_name": "dak_song",
    "province_id": "67",
    "id": "665"
  },
  {
    "name": "Đắk R'Lấp",
    "name_en": "Dak R'Lap",
    "full_name": "Huyện Đắk R'Lấp",
    "full_name_en": "Dak R'Lap District",
    "code_name": "dak_rlap",
    "province_id": "67",
    "id": "666"
  },
  {
    "name": "Tuy Đức",
    "name_en": "Tuy Duc",
    "full_name": "Huyện Tuy Đức",
    "full_name_en": "Tuy Duc District",
    "code_name": "tuy_duc",
    "province_id": "67",
    "id": "667"
  },
  {
    "name": "Đà Lạt",
    "name_en": "Da Lat",
    "full_name": "Thành phố Đà Lạt",
    "full_name_en": "Da Lat City",
    "code_name": "da_lat",
    "province_id": "68",
    "id": "672"
  },
  {
    "name": "Bảo Lộc",
    "name_en": "Bao Loc",
    "full_name": "Thành phố Bảo Lộc",
    "full_name_en": "Bao Loc City",
    "code_name": "bao_loc",
    "province_id": "68",
    "id": "673"
  },
  {
    "name": "Đam Rông",
    "name_en": "Dam Rong",
    "full_name": "Huyện Đam Rông",
    "full_name_en": "Dam Rong District",
    "code_name": "dam_rong",
    "province_id": "68",
    "id": "674"
  },
  {
    "name": "Lạc Dương",
    "name_en": "Lac Duong",
    "full_name": "Huyện Lạc Dương",
    "full_name_en": "Lac Duong District",
    "code_name": "lac_duong",
    "province_id": "68",
    "id": "675"
  },
  {
    "name": "Lâm Hà",
    "name_en": "Lam Ha",
    "full_name": "Huyện Lâm Hà",
    "full_name_en": "Lam Ha District",
    "code_name": "lam_ha",
    "province_id": "68",
    "id": "676"
  },
  {
    "name": "Đơn Dương",
    "name_en": "Don Duong",
    "full_name": "Huyện Đơn Dương",
    "full_name_en": "Don Duong District",
    "code_name": "don_duong",
    "province_id": "68",
    "id": "677"
  },
  {
    "name": "Đức Trọng",
    "name_en": "Duc Trong",
    "full_name": "Huyện Đức Trọng",
    "full_name_en": "Duc Trong District",
    "code_name": "duc_trong",
    "province_id": "68",
    "id": "678"
  },
  {
    "name": "Di Linh",
    "name_en": "Di Linh",
    "full_name": "Huyện Di Linh",
    "full_name_en": "Di Linh District",
    "code_name": "di_linh",
    "province_id": "68",
    "id": "679"
  },
  {
    "name": "Bảo Lâm",
    "name_en": "Bao Lam",
    "full_name": "Huyện Bảo Lâm",
    "full_name_en": "Bao Lam District",
    "code_name": "bao_lam",
    "province_id": "68",
    "id": "680"
  },
  {
    "name": "Đạ Huoai",
    "name_en": "Da Huoai",
    "full_name": "Huyện Đạ Huoai",
    "full_name_en": "Da Huoai District",
    "code_name": "da_huoai",
    "province_id": "68",
    "id": "681"
  },
  {
    "name": "Đạ Tẻh",
    "name_en": "Da Teh",
    "full_name": "Huyện Đạ Tẻh",
    "full_name_en": "Da Teh District",
    "code_name": "da_teh",
    "province_id": "68",
    "id": "682"
  },
  {
    "name": "Cát Tiên",
    "name_en": "Cat Tien",
    "full_name": "Huyện Cát Tiên",
    "full_name_en": "Cat Tien District",
    "code_name": "cat_tien",
    "province_id": "68",
    "id": "683"
  },
  {
    "name": "Phước Long",
    "name_en": "Phuoc Long",
    "full_name": "Thị xã Phước Long",
    "full_name_en": "Phuoc Long Town",
    "code_name": "phuoc_long",
    "province_id": "70",
    "id": "688"
  },
  {
    "name": "Đồng Xoài",
    "name_en": "Dong Xoai",
    "full_name": "Thành phố Đồng Xoài",
    "full_name_en": "Dong Xoai City",
    "code_name": "dong_xoai",
    "province_id": "70",
    "id": "689"
  },
  {
    "name": "Bình Long",
    "name_en": "Binh Long",
    "full_name": "Thị xã Bình Long",
    "full_name_en": "Binh Long Town",
    "code_name": "binh_long",
    "province_id": "70",
    "id": "690"
  },
  {
    "name": "Bù Gia Mập",
    "name_en": "Bu Gia Map",
    "full_name": "Huyện Bù Gia Mập",
    "full_name_en": "Bu Gia Map District",
    "code_name": "bu_gia_map",
    "province_id": "70",
    "id": "691"
  },
  {
    "name": "Lộc Ninh",
    "name_en": "Loc Ninh",
    "full_name": "Huyện Lộc Ninh",
    "full_name_en": "Loc Ninh District",
    "code_name": "loc_ninh",
    "province_id": "70",
    "id": "692"
  },
  {
    "name": "Bù Đốp",
    "name_en": "Bu Dop",
    "full_name": "Huyện Bù Đốp",
    "full_name_en": "Bu Dop District",
    "code_name": "bu_dop",
    "province_id": "70",
    "id": "693"
  },
  {
    "name": "Hớn Quản",
    "name_en": "Hon Quan",
    "full_name": "Huyện Hớn Quản",
    "full_name_en": "Hon Quan District",
    "code_name": "hon_quan",
    "province_id": "70",
    "id": "694"
  },
  {
    "name": "Đồng Phú",
    "name_en": "Dong Phu",
    "full_name": "Huyện Đồng Phú",
    "full_name_en": "Dong Phu District",
    "code_name": "dong_phu",
    "province_id": "70",
    "id": "695"
  },
  {
    "name": "Bù Đăng",
    "name_en": "Bu Dang",
    "full_name": "Huyện Bù Đăng",
    "full_name_en": "Bu Dang District",
    "code_name": "bu_dang",
    "province_id": "70",
    "id": "696"
  },
  {
    "name": "Chơn Thành",
    "name_en": "Chon Thanh",
    "full_name": "Thị xã Chơn Thành",
    "full_name_en": "Chon Thanh Town",
    "code_name": "chon_thanh",
    "province_id": "70",
    "id": "697"
  },
  {
    "name": "Phú Riềng",
    "name_en": "Phu Rieng",
    "full_name": "Huyện Phú Riềng",
    "full_name_en": "Phu Rieng District",
    "code_name": "phu_rieng",
    "province_id": "70",
    "id": "698"
  },
  {
    "name": "Tây Ninh",
    "name_en": "Tay Ninh",
    "full_name": "Thành phố Tây Ninh",
    "full_name_en": "Tay Ninh City",
    "code_name": "tay_ninh",
    "province_id": "72",
    "id": "703"
  },
  {
    "name": "Tân Biên",
    "name_en": "Tan Bien",
    "full_name": "Huyện Tân Biên",
    "full_name_en": "Tan Bien District",
    "code_name": "tan_bien",
    "province_id": "72",
    "id": "705"
  },
  {
    "name": "Tân Châu",
    "name_en": "Tan Chau",
    "full_name": "Huyện Tân Châu",
    "full_name_en": "Tan Chau District",
    "code_name": "tan_chau",
    "province_id": "72",
    "id": "706"
  },
  {
    "name": "Dương Minh Châu",
    "name_en": "Duong Minh Chau",
    "full_name": "Huyện Dương Minh Châu",
    "full_name_en": "Duong Minh Chau District",
    "code_name": "duong_minh_chau",
    "province_id": "72",
    "id": "707"
  },
  {
    "name": "Châu Thành",
    "name_en": "Chau Thanh",
    "full_name": "Huyện Châu Thành",
    "full_name_en": "Chau Thanh District",
    "code_name": "chau_thanh",
    "province_id": "72",
    "id": "708"
  },
  {
    "name": "Hòa Thành",
    "name_en": "Hoa Thanh",
    "full_name": "Thị xã Hòa Thành",
    "full_name_en": "Hoa Thanh Town",
    "code_name": "hoa_thanh",
    "province_id": "72",
    "id": "709"
  },
  {
    "name": "Gò Dầu",
    "name_en": "Go Dau",
    "full_name": "Huyện Gò Dầu",
    "full_name_en": "Go Dau District",
    "code_name": "go_dau",
    "province_id": "72",
    "id": "710"
  },
  {
    "name": "Bến Cầu",
    "name_en": "Ben Cau",
    "full_name": "Huyện Bến Cầu",
    "full_name_en": "Ben Cau District",
    "code_name": "ben_cau",
    "province_id": "72",
    "id": "711"
  },
  {
    "name": "Trảng Bàng",
    "name_en": "Trang Bang",
    "full_name": "Thị xã Trảng Bàng",
    "full_name_en": "Trang Bang Town",
    "code_name": "trang_bang",
    "province_id": "72",
    "id": "712"
  },
  {
    "name": "Thủ Dầu Một",
    "name_en": "Thu Dau Mot",
    "full_name": "Thành phố Thủ Dầu Một",
    "full_name_en": "Thu Dau Mot City",
    "code_name": "thu_dau_mot",
    "province_id": "74",
    "id": "718"
  },
  {
    "name": "Bàu Bàng",
    "name_en": "Bau Bang",
    "full_name": "Huyện Bàu Bàng",
    "full_name_en": "Bau Bang District",
    "code_name": "bau_bang",
    "province_id": "74",
    "id": "719"
  },
  {
    "name": "Dầu Tiếng",
    "name_en": "Dau Tieng",
    "full_name": "Huyện Dầu Tiếng",
    "full_name_en": "Dau Tieng District",
    "code_name": "dau_tieng",
    "province_id": "74",
    "id": "720"
  },
  {
    "name": "Bến Cát",
    "name_en": "Ben Cat",
    "full_name": "Thành phố Bến Cát",
    "full_name_en": "Ben Cat City",
    "code_name": "ben_cat",
    "province_id": "74",
    "id": "721"
  },
  {
    "name": "Phú Giáo",
    "name_en": "Phu Giao",
    "full_name": "Huyện Phú Giáo",
    "full_name_en": "Phu Giao District",
    "code_name": "phu_giao",
    "province_id": "74",
    "id": "722"
  },
  {
    "name": "Tân Uyên",
    "name_en": "Tan Uyen",
    "full_name": "Thành phố Tân Uyên",
    "full_name_en": "Tan Uyen City",
    "code_name": "tan_uyen",
    "province_id": "74",
    "id": "723"
  },
  {
    "name": "Dĩ An",
    "name_en": "Di An",
    "full_name": "Thành phố Dĩ An",
    "full_name_en": "Di An City",
    "code_name": "di_an",
    "province_id": "74",
    "id": "724"
  },
  {
    "name": "Thuận An",
    "name_en": "Thuan An",
    "full_name": "Thành phố Thuận An",
    "full_name_en": "Thuan An City",
    "code_name": "thuan_an",
    "province_id": "74",
    "id": "725"
  },
  {
    "name": "Bắc Tân Uyên",
    "name_en": "Bac Tan Uyen",
    "full_name": "Huyện Bắc Tân Uyên",
    "full_name_en": "Bac Tan Uyen District",
    "code_name": "bac_tan_uyen",
    "province_id": "74",
    "id": "726"
  },
  {
    "name": "Biên Hòa",
    "name_en": "Bien Hoa",
    "full_name": "Thành phố Biên Hòa",
    "full_name_en": "Bien Hoa City",
    "code_name": "bien_hoa",
    "province_id": "75",
    "id": "731"
  },
  {
    "name": "Long Khánh",
    "name_en": "Long Khanh",
    "full_name": "Thành phố Long Khánh",
    "full_name_en": "Long Khanh City",
    "code_name": "long_khanh",
    "province_id": "75",
    "id": "732"
  },
  {
    "name": "Tân Phú",
    "name_en": "Tan Phu",
    "full_name": "Huyện Tân Phú",
    "full_name_en": "Tan Phu District",
    "code_name": "tan_phu",
    "province_id": "75",
    "id": "734"
  },
  {
    "name": "Vĩnh Cửu",
    "name_en": "Vinh Cuu",
    "full_name": "Huyện Vĩnh Cửu",
    "full_name_en": "Vinh Cuu District",
    "code_name": "vinh_cuu",
    "province_id": "75",
    "id": "735"
  },
  {
    "name": "Định Quán",
    "name_en": "Dinh Quan",
    "full_name": "Huyện Định Quán",
    "full_name_en": "Dinh Quan District",
    "code_name": "dinh_quan",
    "province_id": "75",
    "id": "736"
  },
  {
    "name": "Trảng Bom",
    "name_en": "Trang Bom",
    "full_name": "Huyện Trảng Bom",
    "full_name_en": "Trang Bom District",
    "code_name": "trang_bom",
    "province_id": "75",
    "id": "737"
  },
  {
    "name": "Thống Nhất",
    "name_en": "Thong Nhat",
    "full_name": "Huyện Thống Nhất",
    "full_name_en": "Thong Nhat District",
    "code_name": "thong_nhat",
    "province_id": "75",
    "id": "738"
  },
  {
    "name": "Cẩm Mỹ",
    "name_en": "Cam My",
    "full_name": "Huyện Cẩm Mỹ",
    "full_name_en": "Cam My District",
    "code_name": "cam_my",
    "province_id": "75",
    "id": "739"
  },
  {
    "name": "Long Thành",
    "name_en": "Long Thanh",
    "full_name": "Huyện Long Thành",
    "full_name_en": "Long Thanh District",
    "code_name": "long_thanh",
    "province_id": "75",
    "id": "740"
  },
  {
    "name": "Xuân Lộc",
    "name_en": "Xuan Loc",
    "full_name": "Huyện Xuân Lộc",
    "full_name_en": "Xuan Loc District",
    "code_name": "xuan_loc",
    "province_id": "75",
    "id": "741"
  },
  {
    "name": "Nhơn Trạch",
    "name_en": "Nhon Trach",
    "full_name": "Huyện Nhơn Trạch",
    "full_name_en": "Nhon Trach District",
    "code_name": "nhon_trach",
    "province_id": "75",
    "id": "742"
  },
  {
    "name": "Vũng Tàu",
    "name_en": "Vung Tau",
    "full_name": "Thành phố Vũng Tàu",
    "full_name_en": "Vung Tau City",
    "code_name": "vung_tau",
    "province_id": "77",
    "id": "747"
  },
  {
    "name": "Bà Rịa",
    "name_en": "Ba Ria",
    "full_name": "Thành phố Bà Rịa",
    "full_name_en": "Ba Ria City",
    "code_name": "ba_ria",
    "province_id": "77",
    "id": "748"
  },
  {
    "name": "Châu Đức",
    "name_en": "Chau Duc",
    "full_name": "Huyện Châu Đức",
    "full_name_en": "Chau Duc District",
    "code_name": "chau_duc",
    "province_id": "77",
    "id": "750"
  },
  {
    "name": "Xuyên Mộc",
    "name_en": "Xuyen Moc",
    "full_name": "Huyện Xuyên Mộc",
    "full_name_en": "Xuyen Moc District",
    "code_name": "xuyen_moc",
    "province_id": "77",
    "id": "751"
  },
  {
    "name": "Long Điền",
    "name_en": "Long Dien",
    "full_name": "Huyện Long Điền",
    "full_name_en": "Long Dien District",
    "code_name": "long_dien",
    "province_id": "77",
    "id": "752"
  },
  {
    "name": "Đất Đỏ",
    "name_en": "Dat Do",
    "full_name": "Huyện Đất Đỏ",
    "full_name_en": "Dat Do District",
    "code_name": "dat_do",
    "province_id": "77",
    "id": "753"
  },
  {
    "name": "Phú Mỹ",
    "name_en": "Phu My",
    "full_name": "Thị xã Phú Mỹ",
    "full_name_en": "Phu My Town",
    "code_name": "phu_my",
    "province_id": "77",
    "id": "754"
  },
  {
    "name": "1",
    "name_en": "1",
    "full_name": "Quận 1",
    "full_name_en": "District 1",
    "code_name": "1",
    "province_id": "79",
    "id": "760"
  },
  {
    "name": "12",
    "name_en": "12",
    "full_name": "Quận 12",
    "full_name_en": "District 12",
    "code_name": "12",
    "province_id": "79",
    "id": "761"
  },
  {
    "name": "Gò Vấp",
    "name_en": "Go Vap",
    "full_name": "Quận Gò Vấp",
    "full_name_en": "Go Vap District",
    "code_name": "go_vap",
    "province_id": "79",
    "id": "764"
  },
  {
    "name": "Bình Thạnh",
    "name_en": "Binh Thanh",
    "full_name": "Quận Bình Thạnh",
    "full_name_en": "Binh Thanh District",
    "code_name": "binh_thanh",
    "province_id": "79",
    "id": "765"
  },
  {
    "name": "Tân Bình",
    "name_en": "Tan Binh",
    "full_name": "Quận Tân Bình",
    "full_name_en": "Tan Binh District",
    "code_name": "tan_binh",
    "province_id": "79",
    "id": "766"
  },
  {
    "name": "Tân Phú",
    "name_en": "Tan Phu",
    "full_name": "Quận Tân Phú",
    "full_name_en": "Tan Phu District",
    "code_name": "tan_phu",
    "province_id": "79",
    "id": "767"
  },
  {
    "name": "Phú Nhuận",
    "name_en": "Phu Nhuan",
    "full_name": "Quận Phú Nhuận",
    "full_name_en": "Phu Nhuan District",
    "code_name": "phu_nhuan",
    "province_id": "79",
    "id": "768"
  },
  {
    "name": "Thủ Đức",
    "name_en": "Thu Duc",
    "full_name": "Thành phố Thủ Đức",
    "full_name_en": "Thu Duc City",
    "code_name": "thu_duc",
    "province_id": "79",
    "id": "769"
  },
  {
    "name": "3",
    "name_en": "3",
    "full_name": "Quận 3",
    "full_name_en": "District 3",
    "code_name": "3",
    "province_id": "79",
    "id": "770"
  },
  {
    "name": "10",
    "name_en": "10",
    "full_name": "Quận 10",
    "full_name_en": "District 10",
    "code_name": "10",
    "province_id": "79",
    "id": "771"
  },
  {
    "name": "11",
    "name_en": "11",
    "full_name": "Quận 11",
    "full_name_en": "District 11",
    "code_name": "11",
    "province_id": "79",
    "id": "772"
  },
  {
    "name": "4",
    "name_en": "4",
    "full_name": "Quận 4",
    "full_name_en": "District 4",
    "code_name": "4",
    "province_id": "79",
    "id": "773"
  },
  {
    "name": "5",
    "name_en": "5",
    "full_name": "Quận 5",
    "full_name_en": "District 5",
    "code_name": "5",
    "province_id": "79",
    "id": "774"
  },
  {
    "name": "6",
    "name_en": "6",
    "full_name": "Quận 6",
    "full_name_en": "District 6",
    "code_name": "6",
    "province_id": "79",
    "id": "775"
  },
  {
    "name": "8",
    "name_en": "8",
    "full_name": "Quận 8",
    "full_name_en": "District 8",
    "code_name": "8",
    "province_id": "79",
    "id": "776"
  },
  {
    "name": "Bình Tân",
    "name_en": "Binh Tan",
    "full_name": "Quận Bình Tân",
    "full_name_en": "Binh Tan District",
    "code_name": "binh_tan",
    "province_id": "79",
    "id": "777"
  },
  {
    "name": "7",
    "name_en": "7",
    "full_name": "Quận 7",
    "full_name_en": "District 7",
    "code_name": "7",
    "province_id": "79",
    "id": "778"
  },
  {
    "name": "Củ Chi",
    "name_en": "Cu Chi",
    "full_name": "Huyện Củ Chi",
    "full_name_en": "Cu Chi District",
    "code_name": "cu_chi",
    "province_id": "79",
    "id": "783"
  },
  {
    "name": "Hóc Môn",
    "name_en": "Hoc Mon",
    "full_name": "Huyện Hóc Môn",
    "full_name_en": "Hoc Mon District",
    "code_name": "hoc_mon",
    "province_id": "79",
    "id": "784"
  },
  {
    "name": "Bình Chánh",
    "name_en": "Binh Chanh",
    "full_name": "Huyện Bình Chánh",
    "full_name_en": "Binh Chanh District",
    "code_name": "binh_chanh",
    "province_id": "79",
    "id": "785"
  },
  {
    "name": "Nhà Bè",
    "name_en": "Nha Be",
    "full_name": "Huyện Nhà Bè",
    "full_name_en": "Nha Be District",
    "code_name": "nha_be",
    "province_id": "79",
    "id": "786"
  },
  {
    "name": "Cần Giờ",
    "name_en": "Can Gio",
    "full_name": "Huyện Cần Giờ",
    "full_name_en": "Can Gio District",
    "code_name": "can_gio",
    "province_id": "79",
    "id": "787"
  },
  {
    "name": "Tân An",
    "name_en": "Tan An",
    "full_name": "Thành phố Tân An",
    "full_name_en": "Tan An City",
    "code_name": "tan_an",
    "province_id": "80",
    "id": "794"
  },
  {
    "name": "Kiến Tường",
    "name_en": "Kien Tuong",
    "full_name": "Thị xã Kiến Tường",
    "full_name_en": "Kien Tuong Town",
    "code_name": "kien_tuong",
    "province_id": "80",
    "id": "795"
  },
  {
    "name": "Tân Hưng",
    "name_en": "Tan Hung",
    "full_name": "Huyện Tân Hưng",
    "full_name_en": "Tan Hung District",
    "code_name": "tan_hung",
    "province_id": "80",
    "id": "796"
  },
  {
    "name": "Vĩnh Hưng",
    "name_en": "Vinh Hung",
    "full_name": "Huyện Vĩnh Hưng",
    "full_name_en": "Vinh Hung District",
    "code_name": "vinh_hung",
    "province_id": "80",
    "id": "797"
  },
  {
    "name": "Mộc Hóa",
    "name_en": "Moc Hoa",
    "full_name": "Huyện Mộc Hóa",
    "full_name_en": "Moc Hoa District",
    "code_name": "moc_hoa",
    "province_id": "80",
    "id": "798"
  },
  {
    "name": "Tân Thạnh",
    "name_en": "Tan Thanh",
    "full_name": "Huyện Tân Thạnh",
    "full_name_en": "Tan Thanh District",
    "code_name": "tan_thanh",
    "province_id": "80",
    "id": "799"
  },
  {
    "name": "Thạnh Hóa",
    "name_en": "Thanh Hoa",
    "full_name": "Huyện Thạnh Hóa",
    "full_name_en": "Thanh Hoa District",
    "code_name": "thanh_hoa",
    "province_id": "80",
    "id": "800"
  },
  {
    "name": "Đức Huệ",
    "name_en": "Duc Hue",
    "full_name": "Huyện Đức Huệ",
    "full_name_en": "Duc Hue District",
    "code_name": "duc_hue",
    "province_id": "80",
    "id": "801"
  },
  {
    "name": "Đức Hòa",
    "name_en": "Duc Hoa",
    "full_name": "Huyện Đức Hòa",
    "full_name_en": "Duc Hoa District",
    "code_name": "duc_hoa",
    "province_id": "80",
    "id": "802"
  },
  {
    "name": "Bến Lức",
    "name_en": "Ben Luc",
    "full_name": "Huyện Bến Lức",
    "full_name_en": "Ben Luc District",
    "code_name": "ben_luc",
    "province_id": "80",
    "id": "803"
  },
  {
    "name": "Thủ Thừa",
    "name_en": "Thu Thua",
    "full_name": "Huyện Thủ Thừa",
    "full_name_en": "Thu Thua District",
    "code_name": "thu_thua",
    "province_id": "80",
    "id": "804"
  },
  {
    "name": "Tân Trụ",
    "name_en": "Tan Tru",
    "full_name": "Huyện Tân Trụ",
    "full_name_en": "Tan Tru District",
    "code_name": "tan_tru",
    "province_id": "80",
    "id": "805"
  },
  {
    "name": "Cần Đước",
    "name_en": "Can Duoc",
    "full_name": "Huyện Cần Đước",
    "full_name_en": "Can Duoc District",
    "code_name": "can_duoc",
    "province_id": "80",
    "id": "806"
  },
  {
    "name": "Cần Giuộc",
    "name_en": "Can Giuoc",
    "full_name": "Huyện Cần Giuộc",
    "full_name_en": "Can Giuoc District",
    "code_name": "can_giuoc",
    "province_id": "80",
    "id": "807"
  },
  {
    "name": "Châu Thành",
    "name_en": "Chau Thanh",
    "full_name": "Huyện Châu Thành",
    "full_name_en": "Chau Thanh District",
    "code_name": "chau_thanh",
    "province_id": "80",
    "id": "808"
  },
  {
    "name": "Mỹ Tho",
    "name_en": "My Tho",
    "full_name": "Thành phố Mỹ Tho",
    "full_name_en": "My Tho City",
    "code_name": "my_tho",
    "province_id": "82",
    "id": "815"
  },
  {
    "name": "Gò Công",
    "name_en": "Go Cong",
    "full_name": "Thành phố Gò Công",
    "full_name_en": "Go Cong City",
    "code_name": "go_cong",
    "province_id": "82",
    "id": "816"
  },
  {
    "name": "Cai Lậy",
    "name_en": "Cai Lay",
    "full_name": "Thị xã Cai Lậy",
    "full_name_en": "Cai Lay Town",
    "code_name": "cai_lay",
    "province_id": "82",
    "id": "817"
  },
  {
    "name": "Tân Phước",
    "name_en": "Tan Phuoc",
    "full_name": "Huyện Tân Phước",
    "full_name_en": "Tan Phuoc District",
    "code_name": "tan_phuoc",
    "province_id": "82",
    "id": "818"
  },
  {
    "name": "Cái Bè",
    "name_en": "Cai Be",
    "full_name": "Huyện Cái Bè",
    "full_name_en": "Cai Be District",
    "code_name": "cai_be",
    "province_id": "82",
    "id": "819"
  },
  {
    "name": "Cai Lậy",
    "name_en": "Cai Lay",
    "full_name": "Huyện Cai Lậy",
    "full_name_en": "Cai Lay District",
    "code_name": "cai_lay",
    "province_id": "82",
    "id": "820"
  },
  {
    "name": "Châu Thành",
    "name_en": "Chau Thanh",
    "full_name": "Huyện Châu Thành",
    "full_name_en": "Chau Thanh District",
    "code_name": "chau_thanh",
    "province_id": "82",
    "id": "821"
  },
  {
    "name": "Chợ Gạo",
    "name_en": "Cho Gao",
    "full_name": "Huyện Chợ Gạo",
    "full_name_en": "Cho Gao District",
    "code_name": "cho_gao",
    "province_id": "82",
    "id": "822"
  },
  {
    "name": "Gò Công Tây",
    "name_en": "Go Cong Tay",
    "full_name": "Huyện Gò Công Tây",
    "full_name_en": "Go Cong Tay District",
    "code_name": "go_cong_tay",
    "province_id": "82",
    "id": "823"
  },
  {
    "name": "Gò Công Đông",
    "name_en": "Go Cong Dong",
    "full_name": "Huyện Gò Công Đông",
    "full_name_en": "Go Cong Dong District",
    "code_name": "go_cong_dong",
    "province_id": "82",
    "id": "824"
  },
  {
    "name": "Tân Phú Đông",
    "name_en": "Tan Phu Dong",
    "full_name": "Huyện Tân Phú Đông",
    "full_name_en": "Tan Phu Dong District",
    "code_name": "tan_phu_dong",
    "province_id": "82",
    "id": "825"
  },
  {
    "name": "Bến Tre",
    "name_en": "Ben Tre",
    "full_name": "Thành phố Bến Tre",
    "full_name_en": "Ben Tre City",
    "code_name": "ben_tre",
    "province_id": "83",
    "id": "829"
  },
  {
    "name": "Châu Thành",
    "name_en": "Chau Thanh",
    "full_name": "Huyện Châu Thành",
    "full_name_en": "Chau Thanh District",
    "code_name": "chau_thanh",
    "province_id": "83",
    "id": "831"
  },
  {
    "name": "Chợ Lách",
    "name_en": "Cho Lach",
    "full_name": "Huyện Chợ Lách",
    "full_name_en": "Cho Lach District",
    "code_name": "cho_lach",
    "province_id": "83",
    "id": "832"
  },
  {
    "name": "Mỏ Cày Nam",
    "name_en": "Mo Cay Nam",
    "full_name": "Huyện Mỏ Cày Nam",
    "full_name_en": "Mo Cay Nam District",
    "code_name": "mo_cay_nam",
    "province_id": "83",
    "id": "833"
  },
  {
    "name": "Giồng Trôm",
    "name_en": "Giong Trom",
    "full_name": "Huyện Giồng Trôm",
    "full_name_en": "Giong Trom District",
    "code_name": "giong_trom",
    "province_id": "83",
    "id": "834"
  },
  {
    "name": "Bình Đại",
    "name_en": "Binh Dai",
    "full_name": "Huyện Bình Đại",
    "full_name_en": "Binh Dai District",
    "code_name": "binh_dai",
    "province_id": "83",
    "id": "835"
  },
  {
    "name": "Ba Tri",
    "name_en": "Ba Tri",
    "full_name": "Huyện Ba Tri",
    "full_name_en": "Ba Tri District",
    "code_name": "ba_tri",
    "province_id": "83",
    "id": "836"
  },
  {
    "name": "Thạnh Phú",
    "name_en": "Thanh Phu",
    "full_name": "Huyện Thạnh Phú",
    "full_name_en": "Thanh Phu District",
    "code_name": "thanh_phu",
    "province_id": "83",
    "id": "837"
  },
  {
    "name": "Mỏ Cày Bắc",
    "name_en": "Mo Cay Bac",
    "full_name": "Huyện Mỏ Cày Bắc",
    "full_name_en": "Mo Cay Bac District",
    "code_name": "mo_cay_bac",
    "province_id": "83",
    "id": "838"
  },
  {
    "name": "Trà Vinh",
    "name_en": "Tra Vinh",
    "full_name": "Thành phố Trà Vinh",
    "full_name_en": "Tra Vinh City",
    "code_name": "tra_vinh",
    "province_id": "84",
    "id": "842"
  },
  {
    "name": "Càng Long",
    "name_en": "Cang Long",
    "full_name": "Huyện Càng Long",
    "full_name_en": "Cang Long District",
    "code_name": "cang_long",
    "province_id": "84",
    "id": "844"
  },
  {
    "name": "Cầu Kè",
    "name_en": "Cau Ke",
    "full_name": "Huyện Cầu Kè",
    "full_name_en": "Cau Ke District",
    "code_name": "cau_ke",
    "province_id": "84",
    "id": "845"
  },
  {
    "name": "Tiểu Cần",
    "name_en": "Tieu Can",
    "full_name": "Huyện Tiểu Cần",
    "full_name_en": "Tieu Can District",
    "code_name": "tieu_can",
    "province_id": "84",
    "id": "846"
  },
  {
    "name": "Châu Thành",
    "name_en": "Chau Thanh",
    "full_name": "Huyện Châu Thành",
    "full_name_en": "Chau Thanh District",
    "code_name": "chau_thanh",
    "province_id": "84",
    "id": "847"
  },
  {
    "name": "Cầu Ngang",
    "name_en": "Cau Ngang",
    "full_name": "Huyện Cầu Ngang",
    "full_name_en": "Cau Ngang District",
    "code_name": "cau_ngang",
    "province_id": "84",
    "id": "848"
  },
  {
    "name": "Trà Cú",
    "name_en": "Tra Cu",
    "full_name": "Huyện Trà Cú",
    "full_name_en": "Tra Cu District",
    "code_name": "tra_cu",
    "province_id": "84",
    "id": "849"
  },
  {
    "name": "Duyên Hải",
    "name_en": "Duyen Hai",
    "full_name": "Huyện Duyên Hải",
    "full_name_en": "Duyen Hai District",
    "code_name": "duyen_hai",
    "province_id": "84",
    "id": "850"
  },
  {
    "name": "Duyên Hải",
    "name_en": "Duyen Hai",
    "full_name": "Thị xã Duyên Hải",
    "full_name_en": "Duyen Hai Town",
    "code_name": "duyen_hai",
    "province_id": "84",
    "id": "851"
  },
  {
    "name": "Vĩnh Long",
    "name_en": "Vinh Long",
    "full_name": "Thành phố Vĩnh Long",
    "full_name_en": "Vinh Long City",
    "code_name": "vinh_long",
    "province_id": "86",
    "id": "855"
  },
  {
    "name": "Long Hồ",
    "name_en": "Long Ho",
    "full_name": "Huyện Long Hồ",
    "full_name_en": "Long Ho District",
    "code_name": "long_ho",
    "province_id": "86",
    "id": "857"
  },
  {
    "name": "Mang Thít",
    "name_en": "Mang Thit",
    "full_name": "Huyện Mang Thít",
    "full_name_en": "Mang Thit District",
    "code_name": "mang_thit",
    "province_id": "86",
    "id": "858"
  },
  {
    "name": "Vũng Liêm",
    "name_en": "Vung Liem",
    "full_name": "Huyện Vũng Liêm",
    "full_name_en": "Vung Liem District",
    "code_name": "vung_liem",
    "province_id": "86",
    "id": "859"
  },
  {
    "name": "Tam Bình",
    "name_en": "Tam Binh",
    "full_name": "Huyện Tam Bình",
    "full_name_en": "Tam Binh District",
    "code_name": "tam_binh",
    "province_id": "86",
    "id": "860"
  },
  {
    "name": "Bình Minh",
    "name_en": "Binh Minh",
    "full_name": "Thị xã Bình Minh",
    "full_name_en": "Binh Minh Town",
    "code_name": "binh_minh",
    "province_id": "86",
    "id": "861"
  },
  {
    "name": "Trà Ôn",
    "name_en": "Tra On",
    "full_name": "Huyện Trà Ôn",
    "full_name_en": "Tra On District",
    "code_name": "tra_on",
    "province_id": "86",
    "id": "862"
  },
  {
    "name": "Bình Tân",
    "name_en": "Binh Tan",
    "full_name": "Huyện Bình Tân",
    "full_name_en": "Binh Tan District",
    "code_name": "binh_tan",
    "province_id": "86",
    "id": "863"
  },
  {
    "name": "Cao Lãnh",
    "name_en": "Cao Lanh",
    "full_name": "Thành phố Cao Lãnh",
    "full_name_en": "Cao Lanh City",
    "code_name": "cao_lanh",
    "province_id": "87",
    "id": "866"
  },
  {
    "name": "Sa Đéc",
    "name_en": "Sa Dec",
    "full_name": "Thành phố Sa Đéc",
    "full_name_en": "Sa Dec City",
    "code_name": "sa_dec",
    "province_id": "87",
    "id": "867"
  },
  {
    "name": "Hồng Ngự",
    "name_en": "Hong Ngu",
    "full_name": "Thành phố Hồng Ngự",
    "full_name_en": "Hong Ngu City",
    "code_name": "hong_ngu",
    "province_id": "87",
    "id": "868"
  },
  {
    "name": "Tân Hồng",
    "name_en": "Tan Hong",
    "full_name": "Huyện Tân Hồng",
    "full_name_en": "Tan Hong District",
    "code_name": "tan_hong",
    "province_id": "87",
    "id": "869"
  },
  {
    "name": "Hồng Ngự",
    "name_en": "Hong Ngu",
    "full_name": "Huyện Hồng Ngự",
    "full_name_en": "Hong Ngu District",
    "code_name": "hong_ngu",
    "province_id": "87",
    "id": "870"
  },
  {
    "name": "Tam Nông",
    "name_en": "Tam Nong",
    "full_name": "Huyện Tam Nông",
    "full_name_en": "Tam Nong District",
    "code_name": "tam_nong",
    "province_id": "87",
    "id": "871"
  },
  {
    "name": "Tháp Mười",
    "name_en": "Thap Muoi",
    "full_name": "Huyện Tháp Mười",
    "full_name_en": "Thap Muoi District",
    "code_name": "thap_muoi",
    "province_id": "87",
    "id": "872"
  },
  {
    "name": "Cao Lãnh",
    "name_en": "Cao Lanh",
    "full_name": "Huyện Cao Lãnh",
    "full_name_en": "Cao Lanh District",
    "code_name": "cao_lanh",
    "province_id": "87",
    "id": "873"
  },
  {
    "name": "Thanh Bình",
    "name_en": "Thanh Binh",
    "full_name": "Huyện Thanh Bình",
    "full_name_en": "Thanh Binh District",
    "code_name": "thanh_binh",
    "province_id": "87",
    "id": "874"
  },
  {
    "name": "Lấp Vò",
    "name_en": "Lap Vo",
    "full_name": "Huyện Lấp Vò",
    "full_name_en": "Lap Vo District",
    "code_name": "lap_vo",
    "province_id": "87",
    "id": "875"
  },
  {
    "name": "Lai Vung",
    "name_en": "Lai Vung",
    "full_name": "Huyện Lai Vung",
    "full_name_en": "Lai Vung District",
    "code_name": "lai_vung",
    "province_id": "87",
    "id": "876"
  },
  {
    "name": "Châu Thành",
    "name_en": "Chau Thanh",
    "full_name": "Huyện Châu Thành",
    "full_name_en": "Chau Thanh District",
    "code_name": "chau_thanh",
    "province_id": "87",
    "id": "877"
  },
  {
    "name": "Long Xuyên",
    "name_en": "Long Xuyen",
    "full_name": "Thành phố Long Xuyên",
    "full_name_en": "Long Xuyen City",
    "code_name": "long_xuyen",
    "province_id": "89",
    "id": "883"
  },
  {
    "name": "Châu Đốc",
    "name_en": "Chau Doc",
    "full_name": "Thành phố Châu Đốc",
    "full_name_en": "Chau Doc City",
    "code_name": "chau_doc",
    "province_id": "89",
    "id": "884"
  },
  {
    "name": "An Phú",
    "name_en": "An Phu",
    "full_name": "Huyện An Phú",
    "full_name_en": "An Phu District",
    "code_name": "an_phu",
    "province_id": "89",
    "id": "886"
  },
  {
    "name": "Tân Châu",
    "name_en": "Tan Chau",
    "full_name": "Thị xã Tân Châu",
    "full_name_en": "Tan Chau Town",
    "code_name": "tan_chau",
    "province_id": "89",
    "id": "887"
  },
  {
    "name": "Phú Tân",
    "name_en": "Phu Tan",
    "full_name": "Huyện Phú Tân",
    "full_name_en": "Phu Tan District",
    "code_name": "phu_tan",
    "province_id": "89",
    "id": "888"
  },
  {
    "name": "Châu Phú",
    "name_en": "Chau Phu",
    "full_name": "Huyện Châu Phú",
    "full_name_en": "Chau Phu District",
    "code_name": "chau_phu",
    "province_id": "89",
    "id": "889"
  },
  {
    "name": "Tịnh Biên",
    "name_en": "Tinh Bien",
    "full_name": "Thị xã Tịnh Biên",
    "full_name_en": "Tinh Bien Town",
    "code_name": "tinh_bien",
    "province_id": "89",
    "id": "890"
  },
  {
    "name": "Tri Tôn",
    "name_en": "Tri Ton",
    "full_name": "Huyện Tri Tôn",
    "full_name_en": "Tri Ton District",
    "code_name": "tri_ton",
    "province_id": "89",
    "id": "891"
  },
  {
    "name": "Châu Thành",
    "name_en": "Chau Thanh",
    "full_name": "Huyện Châu Thành",
    "full_name_en": "Chau Thanh District",
    "code_name": "chau_thanh",
    "province_id": "89",
    "id": "892"
  },
  {
    "name": "Chợ Mới",
    "name_en": "Cho Moi",
    "full_name": "Huyện Chợ Mới",
    "full_name_en": "Cho Moi District",
    "code_name": "cho_moi",
    "province_id": "89",
    "id": "893"
  },
  {
    "name": "Thoại Sơn",
    "name_en": "Thoai Son",
    "full_name": "Huyện Thoại Sơn",
    "full_name_en": "Thoai Son District",
    "code_name": "thoai_son",
    "province_id": "89",
    "id": "894"
  },
  {
    "name": "Rạch Giá",
    "name_en": "Rach Gia",
    "full_name": "Thành phố Rạch Giá",
    "full_name_en": "Rach Gia City",
    "code_name": "rach_gia",
    "province_id": "91",
    "id": "899"
  },
  {
    "name": "Hà Tiên",
    "name_en": "Ha Tien",
    "full_name": "Thành phố Hà Tiên",
    "full_name_en": "Ha Tien City",
    "code_name": "ha_tien",
    "province_id": "91",
    "id": "900"
  },
  {
    "name": "Kiên Lương",
    "name_en": "Kien Luong",
    "full_name": "Huyện Kiên Lương",
    "full_name_en": "Kien Luong District",
    "code_name": "kien_luong",
    "province_id": "91",
    "id": "902"
  },
  {
    "name": "Hòn Đất",
    "name_en": "Hon Dat",
    "full_name": "Huyện Hòn Đất",
    "full_name_en": "Hon Dat District",
    "code_name": "hon_dat",
    "province_id": "91",
    "id": "903"
  },
  {
    "name": "Tân Hiệp",
    "name_en": "Tan Hiep",
    "full_name": "Huyện Tân Hiệp",
    "full_name_en": "Tan Hiep District",
    "code_name": "tan_hiep",
    "province_id": "91",
    "id": "904"
  },
  {
    "name": "Châu Thành",
    "name_en": "Chau Thanh",
    "full_name": "Huyện Châu Thành",
    "full_name_en": "Chau Thanh District",
    "code_name": "chau_thanh",
    "province_id": "91",
    "id": "905"
  },
  {
    "name": "Giồng Riềng",
    "name_en": "Giong Rieng",
    "full_name": "Huyện Giồng Riềng",
    "full_name_en": "Giong Rieng District",
    "code_name": "giong_rieng",
    "province_id": "91",
    "id": "906"
  },
  {
    "name": "Gò Quao",
    "name_en": "Go Quao",
    "full_name": "Huyện Gò Quao",
    "full_name_en": "Go Quao District",
    "code_name": "go_quao",
    "province_id": "91",
    "id": "907"
  },
  {
    "name": "An Biên",
    "name_en": "An Bien",
    "full_name": "Huyện An Biên",
    "full_name_en": "An Bien District",
    "code_name": "an_bien",
    "province_id": "91",
    "id": "908"
  },
  {
    "name": "An Minh",
    "name_en": "An Minh",
    "full_name": "Huyện An Minh",
    "full_name_en": "An Minh District",
    "code_name": "an_minh",
    "province_id": "91",
    "id": "909"
  },
  {
    "name": "Vĩnh Thuận",
    "name_en": "Vinh Thuan",
    "full_name": "Huyện Vĩnh Thuận",
    "full_name_en": "Vinh Thuan District",
    "code_name": "vinh_thuan",
    "province_id": "91",
    "id": "910"
  },
  {
    "name": "Phú Quốc",
    "name_en": "Phu Quoc",
    "full_name": "Thành phố Phú Quốc",
    "full_name_en": "Phu Quoc City",
    "code_name": "phu_quoc",
    "province_id": "91",
    "id": "911"
  },
  {
    "name": "Kiên Hải",
    "name_en": "Kien Hai",
    "full_name": "Huyện Kiên Hải",
    "full_name_en": "Kien Hai District",
    "code_name": "kien_hai",
    "province_id": "91",
    "id": "912"
  },
  {
    "name": "U Minh Thượng",
    "name_en": "U Minh Thuong",
    "full_name": "Huyện U Minh Thượng",
    "full_name_en": "U Minh Thuong District",
    "code_name": "u_minh_thuong",
    "province_id": "91",
    "id": "913"
  },
  {
    "name": "Giang Thành",
    "name_en": "Giang Thanh",
    "full_name": "Huyện Giang Thành",
    "full_name_en": "Giang Thanh District",
    "code_name": "giang_thanh",
    "province_id": "91",
    "id": "914"
  },
  {
    "name": "Ninh Kiều",
    "name_en": "Ninh Kieu",
    "full_name": "Quận Ninh Kiều",
    "full_name_en": "Ninh Kieu District",
    "code_name": "ninh_kieu",
    "province_id": "92",
    "id": "916"
  },
  {
    "name": "Ô Môn",
    "name_en": "O Mon",
    "full_name": "Quận Ô Môn",
    "full_name_en": "O Mon District",
    "code_name": "o_mon",
    "province_id": "92",
    "id": "917"
  },
  {
    "name": "Bình Thuỷ",
    "name_en": "Binh Thuy",
    "full_name": "Quận Bình Thuỷ",
    "full_name_en": "Binh Thuy District",
    "code_name": "binh_thuy",
    "province_id": "92",
    "id": "918"
  },
  {
    "name": "Cái Răng",
    "name_en": "Cai Rang",
    "full_name": "Quận Cái Răng",
    "full_name_en": "Cai Rang District",
    "code_name": "cai_rang",
    "province_id": "92",
    "id": "919"
  },
  {
    "name": "Thốt Nốt",
    "name_en": "Thot Not",
    "full_name": "Quận Thốt Nốt",
    "full_name_en": "Thot Not District",
    "code_name": "thot_not",
    "province_id": "92",
    "id": "923"
  },
  {
    "name": "Vĩnh Thạnh",
    "name_en": "Vinh Thanh",
    "full_name": "Huyện Vĩnh Thạnh",
    "full_name_en": "Vinh Thanh District",
    "code_name": "vinh_thanh",
    "province_id": "92",
    "id": "924"
  },
  {
    "name": "Cờ Đỏ",
    "name_en": "Co Do",
    "full_name": "Huyện Cờ Đỏ",
    "full_name_en": "Co Do District",
    "code_name": "co_do",
    "province_id": "92",
    "id": "925"
  },
  {
    "name": "Phong Điền",
    "name_en": "Phong Dien",
    "full_name": "Huyện Phong Điền",
    "full_name_en": "Phong Dien District",
    "code_name": "phong_dien",
    "province_id": "92",
    "id": "926"
  },
  {
    "name": "Thới Lai",
    "name_en": "Thoi Lai",
    "full_name": "Huyện Thới Lai",
    "full_name_en": "Thoi Lai District",
    "code_name": "thoi_lai",
    "province_id": "92",
    "id": "927"
  },
  {
    "name": "Vị Thanh",
    "name_en": "Vi Thanh",
    "full_name": "Thành phố Vị Thanh",
    "full_name_en": "Vi Thanh City",
    "code_name": "vi_thanh",
    "province_id": "93",
    "id": "930"
  },
  {
    "name": "Ngã Bảy",
    "name_en": "Nga Bay",
    "full_name": "Thành phố Ngã Bảy",
    "full_name_en": "Nga Bay City",
    "code_name": "nga_bay",
    "province_id": "93",
    "id": "931"
  },
  {
    "name": "Châu Thành A",
    "name_en": "Chau Thanh A",
    "full_name": "Huyện Châu Thành A",
    "full_name_en": "Chau Thanh A District",
    "code_name": "chau_thanh_a",
    "province_id": "93",
    "id": "932"
  },
  {
    "name": "Châu Thành",
    "name_en": "Chau Thanh",
    "full_name": "Huyện Châu Thành",
    "full_name_en": "Chau Thanh District",
    "code_name": "chau_thanh",
    "province_id": "93",
    "id": "933"
  },
  {
    "name": "Phụng Hiệp",
    "name_en": "Phung Hiep",
    "full_name": "Huyện Phụng Hiệp",
    "full_name_en": "Phung Hiep District",
    "code_name": "phung_hiep",
    "province_id": "93",
    "id": "934"
  },
  {
    "name": "Vị Thuỷ",
    "name_en": "Vi Thuy",
    "full_name": "Huyện Vị Thuỷ",
    "full_name_en": "Vi Thuy District",
    "code_name": "vi_thuy",
    "province_id": "93",
    "id": "935"
  },
  {
    "name": "Long Mỹ",
    "name_en": "Long My",
    "full_name": "Huyện Long Mỹ",
    "full_name_en": "Long My District",
    "code_name": "long_my",
    "province_id": "93",
    "id": "936"
  },
  {
    "name": "Long Mỹ",
    "name_en": "Long My",
    "full_name": "Thị xã Long Mỹ",
    "full_name_en": "Long My Town",
    "code_name": "long_my",
    "province_id": "93",
    "id": "937"
  },
  {
    "name": "Sóc Trăng",
    "name_en": "Soc Trang",
    "full_name": "Thành phố Sóc Trăng",
    "full_name_en": "Soc Trang City",
    "code_name": "soc_trang",
    "province_id": "94",
    "id": "941"
  },
  {
    "name": "Châu Thành",
    "name_en": "Chau Thanh",
    "full_name": "Huyện Châu Thành",
    "full_name_en": "Chau Thanh District",
    "code_name": "chau_thanh",
    "province_id": "94",
    "id": "942"
  },
  {
    "name": "Kế Sách",
    "name_en": "Ke Sach",
    "full_name": "Huyện Kế Sách",
    "full_name_en": "Ke Sach District",
    "code_name": "ke_sach",
    "province_id": "94",
    "id": "943"
  },
  {
    "name": "Mỹ Tú",
    "name_en": "My Tu",
    "full_name": "Huyện Mỹ Tú",
    "full_name_en": "My Tu District",
    "code_name": "my_tu",
    "province_id": "94",
    "id": "944"
  },
  {
    "name": "Cù Lao Dung",
    "name_en": "Cu Lao Dung",
    "full_name": "Huyện Cù Lao Dung",
    "full_name_en": "Cu Lao Dung District",
    "code_name": "cu_lao_dung",
    "province_id": "94",
    "id": "945"
  },
  {
    "name": "Long Phú",
    "name_en": "Long Phu",
    "full_name": "Huyện Long Phú",
    "full_name_en": "Long Phu District",
    "code_name": "long_phu",
    "province_id": "94",
    "id": "946"
  },
  {
    "name": "Mỹ Xuyên",
    "name_en": "My Xuyen",
    "full_name": "Huyện Mỹ Xuyên",
    "full_name_en": "My Xuyen District",
    "code_name": "my_xuyen",
    "province_id": "94",
    "id": "947"
  },
  {
    "name": "Ngã Năm",
    "name_en": "Nga Nam",
    "full_name": "Thị xã Ngã Năm",
    "full_name_en": "Nga Nam Town",
    "code_name": "nga_nam",
    "province_id": "94",
    "id": "948"
  },
  {
    "name": "Thạnh Trị",
    "name_en": "Thanh Tri",
    "full_name": "Huyện Thạnh Trị",
    "full_name_en": "Thanh Tri District",
    "code_name": "thanh_tri",
    "province_id": "94",
    "id": "949"
  },
  {
    "name": "Vĩnh Châu",
    "name_en": "Vinh Chau",
    "full_name": "Thị xã Vĩnh Châu",
    "full_name_en": "Vinh Chau Town",
    "code_name": "vinh_chau",
    "province_id": "94",
    "id": "950"
  },
  {
    "name": "Trần Đề",
    "name_en": "Tran De",
    "full_name": "Huyện Trần Đề",
    "full_name_en": "Tran De District",
    "code_name": "tran_de",
    "province_id": "94",
    "id": "951"
  },
  {
    "name": "Bạc Liêu",
    "name_en": "Bac Lieu",
    "full_name": "Thành phố Bạc Liêu",
    "full_name_en": "Bac Lieu City",
    "code_name": "bac_lieu",
    "province_id": "95",
    "id": "954"
  },
  {
    "name": "Hồng Dân",
    "name_en": "Hong Dan",
    "full_name": "Huyện Hồng Dân",
    "full_name_en": "Hong Dan District",
    "code_name": "hong_dan",
    "province_id": "95",
    "id": "956"
  },
  {
    "name": "Phước Long",
    "name_en": "Phuoc Long",
    "full_name": "Huyện Phước Long",
    "full_name_en": "Phuoc Long District",
    "code_name": "phuoc_long",
    "province_id": "95",
    "id": "957"
  },
  {
    "name": "Vĩnh Lợi",
    "name_en": "Vinh Loi",
    "full_name": "Huyện Vĩnh Lợi",
    "full_name_en": "Vinh Loi District",
    "code_name": "vinh_loi",
    "province_id": "95",
    "id": "958"
  },
  {
    "name": "Giá Rai",
    "name_en": "Gia Rai",
    "full_name": "Thị xã Giá Rai",
    "full_name_en": "Gia Rai Town",
    "code_name": "gia_rai",
    "province_id": "95",
    "id": "959"
  },
  {
    "name": "Đông Hải",
    "name_en": "Dong Hai",
    "full_name": "Huyện Đông Hải",
    "full_name_en": "Dong Hai District",
    "code_name": "dong_hai",
    "province_id": "95",
    "id": "960"
  },
  {
    "name": "Hoà Bình",
    "name_en": "Hoa Binh",
    "full_name": "Huyện Hoà Bình",
    "full_name_en": "Hoa Binh District",
    "code_name": "hoa_binh",
    "province_id": "95",
    "id": "961"
  },
  {
    "name": "Cà Mau",
    "name_en": "Ca Mau",
    "full_name": "Thành phố Cà Mau",
    "full_name_en": "Ca Mau City",
    "code_name": "ca_mau",
    "province_id": "96",
    "id": "964"
  },
  {
    "name": "U Minh",
    "name_en": "U Minh",
    "full_name": "Huyện U Minh",
    "full_name_en": "U Minh District",
    "code_name": "u_minh",
    "province_id": "96",
    "id": "966"
  },
  {
    "name": "Thới Bình",
    "name_en": "Thoi Binh",
    "full_name": "Huyện Thới Bình",
    "full_name_en": "Thoi Binh District",
    "code_name": "thoi_binh",
    "province_id": "96",
    "id": "967"
  },
  {
    "name": "Trần Văn Thời",
    "name_en": "Tran Van Thoi",
    "full_name": "Huyện Trần Văn Thời",
    "full_name_en": "Tran Van Thoi District",
    "code_name": "tran_van_thoi",
    "province_id": "96",
    "id": "968"
  },
  {
    "name": "Cái Nước",
    "name_en": "Cai Nuoc",
    "full_name": "Huyện Cái Nước",
    "full_name_en": "Cai Nuoc District",
    "code_name": "cai_nuoc",
    "province_id": "96",
    "id": "969"
  },
  {
    "name": "Đầm Dơi",
    "name_en": "Dam Doi",
    "full_name": "Huyện Đầm Dơi",
    "full_name_en": "Dam Doi District",
    "code_name": "dam_doi",
    "province_id": "96",
    "id": "970"
  },
  {
    "name": "Năm Căn",
    "name_en": "Nam Can",
    "full_name": "Huyện Năm Căn",
    "full_name_en": "Nam Can District",
    "code_name": "nam_can",
    "province_id": "96",
    "id": "971"
  },
  {
    "name": "Phú Tân",
    "name_en": "Phu Tan",
    "full_name": "Huyện Phú Tân",
    "full_name_en": "Phu Tan District",
    "code_name": "phu_tan",
    "province_id": "96",
    "id": "972"
  },
  {
    "name": "Ngọc Hiển",
    "name_en": "Ngoc Hien",
    "full_name": "Huyện Ngọc Hiển",
    "full_name_en": "Ngoc Hien District",
    "code_name": "ngoc_hien",
    "province_id": "96",
    "id": "973"
  }
]